LON,LAT,NUMBER,STREET,UNIT,CITY,DISTRICT,REGION,POSTCODE,ID,HASH
10.4283224,55.3614174,68,Hospitalsringen,,,,,5260,,f081887ad0123620
12.3555134,55.8695548,20,TorvestrÃ¦det,,,,,3450,,5d943ec766c49ca4
10.2028544,56.1481137,90A,JÃ¦gergÃ¥rdsgade,,,,,8000,,bac9598ab377c6fd
10.2028544,56.1481137,90A,JÃ¦gergÃ¥rdsgade,,,,,8000,,bac9598ab377c6fd
10.1072927,56.3303964,6,Mejsevej,,,,,8370,,615fa0451adefec2
8.9427032,57.006415,10,GÃ¥rdbÃ¦kvej,,,,,7742,,2a98657dc8344908
10.2879814,56.2095378,327,EgÃ¥ Marina,,,,,8250,,0d0aae057741c77a
12.2644506,55.5718631,50,RÃ¸rhaven,,,,,2690,,546c676958ff31d9
12.1108485,55.5420485,18,Hyldeblomsthaven,,,,,4622,,f2d1e2168b758812
12.306949,55.6062174,31,Agenavej,,,,,2670,,dc30c4e89b1a556e
9.4982717,55.7231851,4,Stenbukken,,,,,7100,,3adb4194264513ca
11.1212264,55.6802023,53,StejlhÃ¸jvej,,,,,4400,,d17b0274524d1cea
9.757563,57.1494254,2,Ny Aabyvej,,,,,9440,,bee9f3a04a9fe07b
12.4581381,55.6370012,47,Hf. Dahlia,,,,,2650,,8716170a6d385332
15.0953603,55.1366284,44,Svanekevej,,,,,3740,,1a23c4b4d57406f2
11.4992983,55.8089123,4C,RÃ¥dhusvej,,,,,4550,,0f51bed6e43c6568
12.5179347,55.7104418,91,Skoleholdervej,,,,,2400,,a7f25b769d2b13b0
12.5179347,55.7104418,91,Skoleholdervej,,,,,2400,,a7f25b769d2b13b0
12.5179347,55.7104418,91,Skoleholdervej,,,,,2400,,a7f25b769d2b13b0
12.5179347,55.7104418,91,Skoleholdervej,,,,,2400,,a7f25b769d2b13b0
12.5179347,55.7104418,91,Skoleholdervej,,,,,2400,,a7f25b769d2b13b0
12.5179347,55.7104418,91,Skoleholdervej,,,,,2400,,a7f25b769d2b13b0
11.3561398,54.8308914,24A,Tjennemarkevej,,,,,4952,,c8e69b594f8ea221
12.5643777,55.6530762,43,Rundholtsvej,,,,,2300,,a82aa4d6c2ed88bd
8.5060771,56.4339782,28B,Aspvej,,,,,7600,,73c0b462388a46d8
12.5542949,55.6974142,11,Guldbergs Plads,,,,,2200,,d8793ce721792ca8
9.7499267,57.1566479,6,TorngÃ¥rdsallÃ©,,,,,9440,,ba2dec13b47bf88c
9.7090228,57.3128598,4,Hesteskoen,,,,,9480,,24c1e439fc8e13a6
8.8616331,54.9353088,91,Vestergade,,,,,6270,,715b60b8573d26b1
8.8616331,54.9353088,91,Vestergade,,,,,6270,,715b60b8573d26b1
10.3268483,55.3960854,135,Vibelund Havekoloni,,,,,5200,,5b37cdb1a259cabf
12.4264294,55.7000343,57,YdergrÃ¦nsen,,,,,2600,,747d3734fbe40892
12.1769006,55.7593069,34,Agertoften,,,,,3660,,36a30df0621dba6d
12.5919249,55.6480651,1,Fuglekongegangen,,,,,2300,,58fadfe1dd44e52f
12.1762708,56.0997134,12,Skovbakken,,,,,3210,,6b127f6f42327850
10.3546709,55.3981184,5T,Snapindvej,,,,,5200,,1ad780e86c44a9a2
8.8481261,54.9323349,58,Solsikkevej,,,,,6270,,08c2b94c9a4f4133
10.5201324,57.2742371,13,Ã…levej,,,,,9300,,adff014b252d3432
12.2289077,55.5461616,25,FÃ¥reager,,,,,2680,,98f9fb5ebc075d3e
9.4828905,56.6070947,11,Elmevej,,,,,9632,,2c05b1bbce5338f8
9.9584642,57.5882581,2B,Vestergade,,,,,9850,,7a1c30df0755bf6d
9.8214736,54.9174441,17,Nylandsvej,,,,,6400,,d32201699df47e4b
10.4322826,55.3915658,305A,Nyborgvej,,,,,5220,,3d15cef5e56ff4fa
10.4322826,55.3915658,305A,Nyborgvej,,,,,5220,,3d15cef5e56ff4fa
10.4322826,55.3915658,305A,Nyborgvej,,,,,5220,,3d15cef5e56ff4fa
10.4322826,55.3915658,305A,Nyborgvej,,,,,5220,,3d15cef5e56ff4fa
10.4322826,55.3915658,305A,Nyborgvej,,,,,5220,,3d15cef5e56ff4fa
10.4322826,55.3915658,305A,Nyborgvej,,,,,5220,,3d15cef5e56ff4fa
10.4322826,55.3915658,305A,Nyborgvej,,,,,5220,,3d15cef5e56ff4fa
10.4322826,55.3915658,305A,Nyborgvej,,,,,5220,,3d15cef5e56ff4fa
10.4322826,55.3915658,305A,Nyborgvej,,,,,5220,,3d15cef5e56ff4fa
10.4322826,55.3915658,305A,Nyborgvej,,,,,5220,,3d15cef5e56ff4fa
12.3475964,55.715258,14,Svalestien,,,,,2750,,250308c02d522959
12.4727759,55.6741002,10A,Auroravej,,,,,2610,,dd36f24f50b5bf15
12.4727759,55.6741002,10A,Auroravej,,,,,2610,,dd36f24f50b5bf15
14.7141181,55.1043173,65,Rundgangen,,,,,3700,,be053404adee6919
12.5132094,55.6609591,5,Pakkerivej,,,,,2500,,389c5ec59588fda3
12.076674,55.2066699,3,MurerstrÃ¦det,,,,,4640,,1edb1fe6093b6d99
10.517229,54.9271808,10,Birkholm,,,,,5960,,cb595ba4bd0c90d1
12.4709487,55.7361559,108,Hf. Voldly,,,,,2860,,37e449c7122c0569
8.9371497,55.7609196,37,Hf. Grindsted,,,,,7200,,e4fa47148e879a74
12.1058383,56.0528693,5D,Tibirkevej,,,,,3220,,654ec69d425a931c
11.8566523,55.5973238,18C,Tolskovvej,,,,,4330,,413500f241c1a39c
12.5217653,55.7949802,4,Hf. Lundtoftehaverne,,,,,2800,,ad2bc51b1217d56e
9.7229823,54.9116969,9,Rolf Krakes Vej,,,,,6400,,fd2d58d3cc5c00a8
12.0488201,55.9628077,47,MÃ¸llehavestien,,,,,3300,,2c1e5fdb16d776e1
9.1306778,55.9337059,12,Feddet,,,,,7330,,afb74da4c2d2fd8a
9.9617115,57.0067352,7,Ikarosvej,,,,,9210,,f2086b9671b6fcca
9.9617115,57.0067352,7,Ikarosvej,,,,,9210,,f2086b9671b6fcca
12.4634927,55.6444025,53,Hf. SvarÃ¸,,,,,2650,,e05a1fc0509bbd75
12.6607164,55.5950797,26,Maglebytorv,,,,,2791,,209ee536b84318e2
10.0946532,56.1132263,152,Kolt Ã˜sterparken,,,,,8361,,187f44bfa595af4b
8.4809826,57.0436653,154M,Ã˜rhagevej,,,,,7700,,55a8bd32a4f028e6
9.1575587,56.1364486,40P,MÃ¸llegade,,,,,7430,,194dc44c0fc9e063
9.1575587,56.1364486,40P,MÃ¸llegade,,,,,7430,,194dc44c0fc9e063
8.3782442,56.9451548,41,Lyngbakken,,,,,7700,,e600f0b510638f9a
10.1562089,56.3653926,5,MÃ¸llebÃ¦kken,,,,,8370,,f5a25a5a4ceb100a
12.528662,55.7070575,25A,Bispevej,,,,,2400,,ef700a3968d90662
12.528662,55.7070575,25A,Bispevej,,,,,2400,,ef700a3968d90662
12.528662,55.7070575,25A,Bispevej,,,,,2400,,ef700a3968d90662
12.528662,55.7070575,25A,Bispevej,,,,,2400,,ef700a3968d90662
12.528662,55.7070575,25A,Bispevej,,,,,2400,,ef700a3968d90662
12.528662,55.7070575,25A,Bispevej,,,,,2400,,ef700a3968d90662
12.528662,55.7070575,25A,Bispevej,,,,,2400,,ef700a3968d90662
9.8348253,55.8419734,66C,Ternevej,,,,,8700,,6883bdc85d5daafb
9.8348253,55.8419734,66C,Ternevej,,,,,8700,,6883bdc85d5daafb
9.8348253,55.8419734,66C,Ternevej,,,,,8700,,6883bdc85d5daafb
9.8348253,55.8419734,66C,Ternevej,,,,,8700,,6883bdc85d5daafb
9.8348253,55.8419734,66C,Ternevej,,,,,8700,,6883bdc85d5daafb
9.8348253,55.8419734,66C,Ternevej,,,,,8700,,6883bdc85d5daafb
9.8348253,55.8419734,66C,Ternevej,,,,,8700,,6883bdc85d5daafb
9.8348253,55.8419734,66C,Ternevej,,,,,8700,,6883bdc85d5daafb
9.8348253,55.8419734,66C,Ternevej,,,,,8700,,6883bdc85d5daafb
9.8348253,55.8419734,66C,Ternevej,,,,,8700,,6883bdc85d5daafb
9.8348253,55.8419734,66C,Ternevej,,,,,8700,,6883bdc85d5daafb
9.8348253,55.8419734,66C,Ternevej,,,,,8700,,6883bdc85d5daafb
9.8348253,55.8419734,66C,Ternevej,,,,,8700,,6883bdc85d5daafb
9.8348253,55.8419734,66C,Ternevej,,,,,8700,,6883bdc85d5daafb
10.597377,55.0695797,27,Havelund,,,,,5700,,4a0cf2417656c2eb
10.8055349,55.3131287,25,Wilsonsgade,,,,,5800,,497bf8ce43f8cf78
9.8350262,54.9126718,93,Store Skovly,,,,,6400,,89dff53dc5d1cbf0
9.399882,56.4492821,2C,Dalbergsgade,,,,,8800,,04a0c8b0895e9a9d
9.0837313,54.9409772,10B,Garverland,,,,,6372,,6cff1e5d7c0f44e5
10.189418,56.1555068,18,Ceresbyen,,,,,8000,,d1efddcc9d613d80
10.189418,56.1555068,18,Ceresbyen,,,,,8000,,d1efddcc9d613d80
10.189418,56.1555068,18,Ceresbyen,,,,,8000,,d1efddcc9d613d80
10.189418,56.1555068,18,Ceresbyen,,,,,8000,,d1efddcc9d613d80
10.189418,56.1555068,18,Ceresbyen,,,,,8000,,d1efddcc9d613d80
10.189418,56.1555068,18,Ceresbyen,,,,,8000,,d1efddcc9d613d80
10.189418,56.1555068,18,Ceresbyen,,,,,8000,,d1efddcc9d613d80
10.189418,56.1555068,18,Ceresbyen,,,,,8000,,d1efddcc9d613d80
10.189418,56.1555068,18,Ceresbyen,,,,,8000,,d1efddcc9d613d80
10.189418,56.1555068,18,Ceresbyen,,,,,8000,,d1efddcc9d613d80
10.189418,56.1555068,18,Ceresbyen,,,,,8000,,d1efddcc9d613d80
10.189418,56.1555068,18,Ceresbyen,,,,,8000,,d1efddcc9d613d80
10.189418,56.1555068,18,Ceresbyen,,,,,8000,,d1efddcc9d613d80
10.189418,56.1555068,18,Ceresbyen,,,,,8000,,d1efddcc9d613d80
10.189418,56.1555068,18,Ceresbyen,,,,,8000,,d1efddcc9d613d80
10.189418,56.1555068,18,Ceresbyen,,,,,8000,,d1efddcc9d613d80
10.189418,56.1555068,18,Ceresbyen,,,,,8000,,d1efddcc9d613d80
10.189418,56.1555068,18,Ceresbyen,,,,,8000,,d1efddcc9d613d80
10.189418,56.1555068,18,Ceresbyen,,,,,8000,,d1efddcc9d613d80
10.189418,56.1555068,18,Ceresbyen,,,,,8000,,d1efddcc9d613d80
10.189418,56.1555068,18,Ceresbyen,,,,,8000,,d1efddcc9d613d80
10.189418,56.1555068,18,Ceresbyen,,,,,8000,,d1efddcc9d613d80
10.189418,56.1555068,18,Ceresbyen,,,,,8000,,d1efddcc9d613d80
10.189418,56.1555068,18,Ceresbyen,,,,,8000,,d1efddcc9d613d80
10.189418,56.1555068,18,Ceresbyen,,,,,8000,,d1efddcc9d613d80
10.189418,56.1555068,18,Ceresbyen,,,,,8000,,d1efddcc9d613d80
10.189418,56.1555068,18,Ceresbyen,,,,,8000,,d1efddcc9d613d80
10.189418,56.1555068,18,Ceresbyen,,,,,8000,,d1efddcc9d613d80
10.189418,56.1555068,18,Ceresbyen,,,,,8000,,d1efddcc9d613d80
10.189418,56.1555068,18,Ceresbyen,,,,,8000,,d1efddcc9d613d80
10.189418,56.1555068,18,Ceresbyen,,,,,8000,,d1efddcc9d613d80
10.189418,56.1555068,18,Ceresbyen,,,,,8000,,d1efddcc9d613d80
10.189418,56.1555068,18,Ceresbyen,,,,,8000,,d1efddcc9d613d80
10.189418,56.1555068,18,Ceresbyen,,,,,8000,,d1efddcc9d613d80
10.189418,56.1555068,18,Ceresbyen,,,,,8000,,d1efddcc9d613d80
10.189418,56.1555068,18,Ceresbyen,,,,,8000,,d1efddcc9d613d80
10.189418,56.1555068,18,Ceresbyen,,,,,8000,,d1efddcc9d613d80
10.189418,56.1555068,18,Ceresbyen,,,,,8000,,d1efddcc9d613d80
10.189418,56.1555068,18,Ceresbyen,,,,,8000,,d1efddcc9d613d80
10.189418,56.1555068,18,Ceresbyen,,,,,8000,,d1efddcc9d613d80
10.189418,56.1555068,18,Ceresbyen,,,,,8000,,d1efddcc9d613d80
10.189418,56.1555068,18,Ceresbyen,,,,,8000,,d1efddcc9d613d80
10.189418,56.1555068,18,Ceresbyen,,,,,8000,,d1efddcc9d613d80
10.189418,56.1555068,18,Ceresbyen,,,,,8000,,d1efddcc9d613d80
10.189418,56.1555068,18,Ceresbyen,,,,,8000,,d1efddcc9d613d80
10.189418,56.1555068,18,Ceresbyen,,,,,8000,,d1efddcc9d613d80
10.189418,56.1555068,18,Ceresbyen,,,,,8000,,d1efddcc9d613d80
10.189418,56.1555068,18,Ceresbyen,,,,,8000,,d1efddcc9d613d80
10.189418,56.1555068,18,Ceresbyen,,,,,8000,,d1efddcc9d613d80
10.189418,56.1555068,18,Ceresbyen,,,,,8000,,d1efddcc9d613d80
10.189418,56.1555068,18,Ceresbyen,,,,,8000,,d1efddcc9d613d80
10.189418,56.1555068,18,Ceresbyen,,,,,8000,,d1efddcc9d613d80
10.189418,56.1555068,18,Ceresbyen,,,,,8000,,d1efddcc9d613d80
10.189418,56.1555068,18,Ceresbyen,,,,,8000,,d1efddcc9d613d80
10.189418,56.1555068,18,Ceresbyen,,,,,8000,,d1efddcc9d613d80
12.4627069,55.614107,111U,Stamholmen,,,,,2650,,04428edf796c798d
12.4627069,55.614107,111U,Stamholmen,,,,,2650,,04428edf796c798d
9.8088811,54.919731,181,Grundtvigs Alle,,,,,6400,,4670c59b4ffe8eef
9.8088811,54.919731,181,Grundtvigs Alle,,,,,6400,,4670c59b4ffe8eef
9.8088811,54.919731,181,Grundtvigs Alle,,,,,6400,,4670c59b4ffe8eef
9.9454997,55.9455474,11,Ã˜rskovbÃ¦k Parken,,,,,8732,,253b01cfbe3d051c
10.7540711,55.3084175,33,Steensager,,,,,5800,,e587e815e2588dfd
10.1018848,56.0433987,33,MÃ¸ddebro Parkvej,,,,,8355,,d0d444b79672598f
10.3197558,56.3095623,26F,Eskerodvej,,,,,8543,,78c425860910977c
9.6471466,55.6316925,22,Hasselhaven,,,,,7080,,c473550638b42448
8.6371032,56.3681146,32,Dominovej,,,,,7500,,6da8640e56badaa9
8.6371032,56.3681146,32,Dominovej,,,,,7500,,6da8640e56badaa9
12.1009295,55.2555969,6B,Conrads Vej,,,,,4640,,b067fa9c60f69c70
8.6371032,56.3681146,32,Dominovej,,,,,7500,,6da8640e56badaa9
8.6371032,56.3681146,32,Dominovej,,,,,7500,,6da8640e56badaa9
8.6371032,56.3681146,32,Dominovej,,,,,7500,,6da8640e56badaa9
8.6371032,56.3681146,32,Dominovej,,,,,7500,,6da8640e56badaa9
12.3567477,55.8885423,12D,Statenevej,,,,,3450,,abbe83dedcab6cae
10.3271619,55.3942465,154,Vibelund Havekoloni,,,,,5200,,074f9ac413d846c4
12.4378865,55.7102535,7,Solstien,,,,,2610,,f71ad7a76482465d
10.3926253,55.3972089,14B,Nedergade,,,,,5000,,478b5da3a9d734e8
9.4001076,55.0579663,31,Haveforeningen Skovly,,,,,6200,,784affc735b675c1
11.1126528,54.8367293,12,Nellikerod,,,,,4900,,9d6c356cc41966c7
9.9395694,57.0597695,7,Stigsborgvej,,,,,9400,,e9b0ab1e5f1b4b54
9.0833335,55.1820495,11,RyttervÃ¦nget,,,,,6520,,704de5818c55ea82
9.5853419,55.4149217,12,Skamlingsbakken,,,,,6093,,10597400f02401ac
9.367464,57.1477809,8,Marinus Johansensvej,,,,,9690,,e0fb20a27740cb27
10.1972685,56.0369817,11D,TvÃ¦rgade,,,,,8340,,92833937e7337843
10.3790852,55.4061361,23,Toldbodhusevej,,,,,5000,,0dbefb8d60f2e1bb
12.1763368,55.7598392,1,Agertoften,,,,,3660,,467e321e44b8d1e5
9.3765715,56.418474,12,Hf. Solvang,,,,,8800,,df17439073985574
10.2745136,55.5181564,67,Torupvej,,,,,5485,,4f3ad252c4f68025
14.7149337,55.1038495,80,GrÃ¦skargangen,,,,,3700,,9fe7bc3de62629e8
9.1840988,57.0448078,417,Bygholmvejlevej,,,,,9690,,2d07e300fcaab86d
10.3603408,57.0415399,24,Koralvej,,,,,9370,,8f04ef97e9cc2459
11.929629,55.3220668,6A,Kaare Klints Vej,,,,,4690,,2739a5b08cee9fcc
11.1339911,54.8424172,33,Anemonevej,,,,,4900,,a39d4bde11659517
11.8174506,55.4406002,40,Irisvej,,,,,4100,,f33b13ac1fb81aab
12.2362346,55.5461694,101A,Troldmands AllÃ©,,,,,2680,,451ea90951fccdbb
9.7684914,56.5348161,38B,Hviddingvej,,,,,8830,,316d347dcb7cf31f
12.4457164,55.7072115,8D,Ved Sportspladsen,,,,,2610,,28c79cdfa9d3b5d2
10.0459628,56.2738063,5,Stenagerbakken,,,,,8382,,3734b0bd4d6fecab
12.5671208,55.6554816,38,Hilmar Baunsgaards Boulevard,,,,,2300,,8a0130f88059c2fa
9.8562554,55.8742868,58,Haveselskab Af 1916,,,,,8700,,0df5b3c497cbe299
8.9797526,56.0845751,1K,Rind Plantagevej,,,,,7400,,f0865ec0905150d7
8.9987082,56.1412999,32,Herningsholm Alle,,,,,7400,,a1c5f978fd9d626e
10.0915165,56.1163548,44,Kildeagertoften,,,,,8361,,8b79ba1ac5cc8ef5
9.9490985,57.2640283,50,Ã˜stergade,,,,,9700,,56e1b173a8035d13
12.3388747,55.7212178,13,Krokusvej,,,,,2750,,392d0bb384a3699f
9.1279876,56.140551,114,Eskelund AllÃ©,,,,,7430,,c3e375a8cef321b6
9.6337739,56.9820418,4C,Kildegade,,,,,9240,,498e2d18829e82c2
10.4310853,55.3984497,158,SÃ¸ndergÃ¥rds Haver Havekoloni,,,,,5220,,a7bcf027235f0ff1
12.4540968,55.7449439,133,Hf. 4. Juli,,,,,2880,,bf9f930ac5a6adad
12.5650836,55.7144575,69,Vognmandsmarken,,,,,2100,,ea4b8082f082b254
10.7837585,54.9338371,501,Krogsbjergvej,,,,,5900,,2bd3ad56e7912591
9.5139651,55.4650233,14,Frejas Ager,,,,,6000,,be5289d2c6bfb1f0
8.5888559,56.8884868,9,NÃ¸rgÃ¥rdsvej,,,,,7752,,9b27111822efdd00
9.2709198,57.1100494,44,Kollerup Strandvej,,,,,9690,,98ca36d84e7dba3f
9.3007315,57.0309003,24,HÃ¸jlundsvej,,,,,9690,,b3184ee6cc8e8998
10.0372405,56.0759699,69,VestergÃ¥rds Alle,,,,,8362,,2b7fe0a4dc9b511e
10.8645883,56.4127698,67,FÃ¦lleskÃ¦r,,,,,8500,,c31c9ff86d069c6e
12.5506428,55.6537879,13,Ã˜stre Teglkaj,,,,,2450,,f6d6bcafcbf19265
12.5506428,55.6537879,13,Ã˜stre Teglkaj,,,,,2450,,f6d6bcafcbf19265
12.5506428,55.6537879,13,Ã˜stre Teglkaj,,,,,2450,,f6d6bcafcbf19265
12.5506428,55.6537879,13,Ã˜stre Teglkaj,,,,,2450,,f6d6bcafcbf19265
12.4836349,55.7121754,18,SortspÃ¦ttegangen,,,,,2700,,51dec8d8f23e7b13
10.0288315,56.2540553,27,Korsagervej,,,,,8382,,15e1360240bdfcd8
12.5671058,55.6790535,34B,Sankt Peders StrÃ¦de,,,,,1453,,e88874005be1674d
10.6126491,55.5109574,25B,SÃ¸ndre Skovgyde,,,,,5370,,70e03481677046bf
10.6126491,55.5109574,25B,SÃ¸ndre Skovgyde,,,,,5370,,70e03481677046bf
10.0302281,56.2536308,39,Midtager,,,,,8382,,e228b0c65449e1fd
10.0473766,55.3837878,7,Lindebjerg AllÃ©,,,,,5560,,31f60ad4e8c27097
10.0473766,55.3837878,7,Lindebjerg AllÃ©,,,,,5560,,31f60ad4e8c27097
10.0473766,55.3837878,7,Lindebjerg AllÃ©,,,,,5560,,31f60ad4e8c27097
10.0473766,55.3837878,7,Lindebjerg AllÃ©,,,,,5560,,31f60ad4e8c27097
9.8326678,54.9123292,84,Store Skovly,,,,,6400,,df14f9d9219b0fe6
11.9470598,55.3188441,15,Kolonihavevej,,,,,4690,,13aeec5e041bc35e
12.5841034,55.6235832,46,Hf. Energien,,,,,2770,,d47d09343d7fa86d
10.6457494,55.0750195,251,Nyborgvej,,,,,5700,,5ba3dc1f14a78694
10.3441837,55.3869716,46,Enghaven Havekoloni,,,,,5200,,bb3b4f3e5bff0242
10.5254338,56.5081557,42C,Nordkystvejen,,,,,8961,,7f5ee0338b2ec93c
12.4031759,55.7389232,34,Pf. Rytterhaven,,,,,2730,,130c845b37c0d4fc
8.2787544,55.6364364,60,Frejasvej,,,,,6840,,4ef7b9989ba90cd1
11.9613042,55.3261286,8K,Frederiksgade,,,,,4690,,f90a28ccaee0ac13
12.3390827,55.7194124,6,BrombÃ¦r Alle,,,,,2750,,350fcc677e53a9e2
12.4680005,55.7411844,515,Hf. Carl Nielsens Minde,,,,,2860,,dc667d4d48f83321
8.4077223,55.4994552,2D,Kastanievej,,,,,6710,,06a0390d9139e2d6
9.8229392,55.8552964,18,Hs Carl Troelsens Minde,,,,,8700,,e33307588819dc62
8.4678727,55.4764958,67,Langelandsvej,,,,,6700,,c906a52e8638e678
10.3543413,55.3995195,45,SnapindlÃ¸kken Havekoloni,,,,,5210,,d38448eff5bb04f2
10.424389,57.1428535,15,Asaa Strand,,,,,9340,,bb43c54540246413
12.4308588,55.851608,4,Lupinkrogen,,,,,3460,,32edcc18c09d4feb
12.4308588,55.851608,4,Lupinkrogen,,,,,3460,,32edcc18c09d4feb
11.794054,55.4354695,10,Odinsparken,,,,,4100,,da396febfb8f1fd2
11.6854148,55.6987971,3,Sports AllÃ©,,,,,4300,,7a8e5118104c79f0
12.075159,55.8172333,7,Ã˜rnestens VÃ¦nge,,,,,3600,,81d34bf51329b37d
12.5128071,55.7019928,66,Hvidkildevej,,,,,2400,,ce117c390d399911
12.3392543,55.6022531,26,Freyas Kvarter,,,,,2670,,d7161c37253ff803
9.6108088,56.1866239,14,Turkuvej,,,,,8600,,59703ac73ecbbb74
11.8197663,55.2042532,319M,Ny PrÃ¦stÃ¸vej,,,,,4700,,51b01174b1cb00ba
9.5305373,55.7074936,3C,Blegbanken,,,,,7100,,12f7dd9642ea1fd4
14.801014,55.2779829,2A,LavendelstrÃ¦de,,,,,3770,,65d2d83286d2aad1
10.1670113,57.1619147,29,Skelbakken,,,,,9320,,4a1215d669290609
10.4494359,55.4189151,34,Snedronningen,,,,,5240,,f3def3c0edb02a60
12.594343,55.7082303,5,Kielgade,,,,,2150,,f51fde96815061d2
12.5183233,55.7836495,324,Richard Petersens Plads,,,,,2800,,fcb1ad470bcf15be
12.5183233,55.7836495,324,Richard Petersens Plads,,,,,2800,,fcb1ad470bcf15be
12.5183233,55.7836495,324,Richard Petersens Plads,,,,,2800,,fcb1ad470bcf15be
12.5183233,55.7836495,324,Richard Petersens Plads,,,,,2800,,fcb1ad470bcf15be
8.4544645,55.4676557,23B,Danmarksgade,,,,,6700,,f5c9758e8d9cea9f
12.4674136,55.7431538,219,Hf. Carl Nielsens Minde,,,,,2860,,32a854464dec713a
11.6837145,55.9234585,39,Ã˜stervangshaven,,,,,4500,,01542f633993dcab
8.9638711,55.1559757,12,HÃ¸jvang,,,,,6520,,4e0b0577cdf9054e
11.9146054,55.6303394,19,Brobjergvej,,,,,4060,,3c93eab4234acb90
10.3221166,55.412297,9H,Paarupvej,,,,,5210,,e7a61069e7a1f0fe
10.3221166,55.412297,9H,Paarupvej,,,,,5210,,e7a61069e7a1f0fe
9.8453365,55.8650235,7D,TobaksgÃ¥rden,,,,,8700,,add1566743ae1879
10.6089865,55.0759112,4,Skovstjernehaven,,,,,5700,,27826975790b2b16
9.9680711,57.0570333,4C,Dybdalsvej,,,,,9220,,57515b8ed9c3d1bb
9.9680711,57.0570333,4C,Dybdalsvej,,,,,9220,,57515b8ed9c3d1bb
9.9680711,57.0570333,4C,Dybdalsvej,,,,,9220,,57515b8ed9c3d1bb
8.7529831,56.2004085,109,NÃ¸rregade,,,,,7480,,e6cf669ef20af873
9.8447691,55.9097292,10,SkovmÃ¦rket,,,,,8700,,3834fccc2cb8b790
11.3909826,54.696592,9A,Fruegade,,,,,4970,,746a65bcab7025fb
10.3063933,55.0810436,9A,Byvej,,,,,5600,,02119bfd74b4f4b3
10.2493448,55.4819242,10,SolsikkevÃ¦nget,,,,,5471,,cd60f63111aba3be
12.5737404,55.8282743,225A,Skodsborg Strandvej,,,,,2942,,2e130f050d36f4a3
12.5737404,55.8282743,225A,Skodsborg Strandvej,,,,,2942,,2e130f050d36f4a3
12.5737404,55.8282743,225A,Skodsborg Strandvej,,,,,2942,,2e130f050d36f4a3
12.5737404,55.8282743,225A,Skodsborg Strandvej,,,,,2942,,2e130f050d36f4a3
12.5737404,55.8282743,225A,Skodsborg Strandvej,,,,,2942,,2e130f050d36f4a3
12.5737404,55.8282743,225A,Skodsborg Strandvej,,,,,2942,,2e130f050d36f4a3
12.5737404,55.8282743,225A,Skodsborg Strandvej,,,,,2942,,2e130f050d36f4a3
11.6444741,55.6483176,8,Malusvej,,,,,4420,,fd0e8bc6355dd185
10.1005782,56.1281409,74,Salamanderparken,,,,,8260,,307a461358210869
11.7176837,55.7009516,4V,RÃ¸rvangsvej,,,,,4300,,823a0cd3fb998de2
12.5594976,55.6729584,23,Vesterbrogade,,,,,1620,,fb6b45cd726f5ff7
9.8393976,56.3014476,73,Vestermarksvej,,,,,8881,,4750ae5278ccf497
9.9997374,57.0242761,6F,TornhÃ¸jvej,,,,,9220,,35664722ef72ecc9
10.5792237,55.0481573,1A,SkovlÃ¸kke,,,,,5700,,84bd86a1a45509ca
9.9369348,57.035685,2,Ditlev Bergs Vej,,,,,9000,,22c487c6b29cc3bf
10.3104263,56.3083618,8,Nannas VÃ¦nge,,,,,8543,,b1dbdcdcf3c9d14c
10.3104263,56.3083618,8,Nannas VÃ¦nge,,,,,8543,,b1dbdcdcf3c9d14c
10.3790852,55.4061361,23,Toldbodhusevej,,,,,5000,,0dbefb8d60f2e1bb
10.1166772,56.0842415,41,Ã˜stergÃ¥rdsparken,,,,,8310,,d3e094ee67cdd8b3
12.3404456,55.7139698,73,HÃ¸jvÃ¦nge Alle,,,,,2750,,bc1d71cd00fe7ee8
10.5707333,56.4091641,14C,Ramtenvej,,,,,8581,,fd38fad4bc7a523e
9.7931803,56.0930868,42,Kildebjerg Skovvej,,,,,8680,,fd36b263612c3554
12.2748632,54.9739129,46,NikkelsbÃ¦kvej,,,,,4780,,319288fef4963bec
12.3838095,55.7066143,5,Ved Ã…en,,,,,2740,,c72b577e0f60f7a4
9.9955031,55.8100771,5,Kirkeager,,,,,7130,,08c25cf2206b3c5b
12.2838976,55.9191898,2,Peder Oxes Alle,,,,,3400,,2682dd1775076fd1
12.3215418,55.6449555,239,GrÃ¸nhÃ¸jgÃ¥rdsvej,,,,,2630,,ed77e91b3f17a148
9.4600182,55.48443,3,Munkeparken,,,,,6000,,52bb94b1a819f781
10.6841284,56.2045377,11A,GolfhÃ¸jen,,,,,8400,,2f68edcbe1cb2206
12.1179724,55.4876331,56A,Lyngvej,,,,,4600,,3008e6bdac4af94d
8.6835842,56.9724294,40A,Hanstholmvej,,,,,7700,,776cb8b8c559f829
12.5151624,55.6389775,26,Hf. Bergmannshave,,,,,2450,,1967e4942de380d6
11.7850605,55.4585516,32,VÃ¦nget,,,,,4100,,2adb5d18e2dcac2a
10.0054434,56.4612502,19,Vasen,,,,,8920,,acaed18fbedfe3c5
10.2879814,56.2095378,363,EgÃ¥ Marina,,,,,8250,,d34bb82fadbae2ed
10.1069407,56.3301367,2,Mejsevej,,,,,8370,,65099cc1b45ffcde
9.4163039,55.0362906,38,Langebro,,,,,6200,,e33d0ddf3eb6e652
8.6172007,56.0863494,2E,Ternevej,,,,,6920,,d0a60fae22808530
10.0491048,56.3186284,41,Flegebakken,,,,,8370,,4b992fd1186dc907
9.4873601,55.4690903,17,DjÃ¦vleklÃ¸ften,,,,,6000,,f08e800c4fd339ad
12.5715208,55.6176171,71,Richard Mortensens Vej,,,,,2300,,f51592424656f55f
12.5715208,55.6176171,71,Richard Mortensens Vej,,,,,2300,,f51592424656f55f
12.5715208,55.6176171,71,Richard Mortensens Vej,,,,,2300,,f51592424656f55f
12.5715208,55.6176171,71,Richard Mortensens Vej,,,,,2300,,f51592424656f55f
12.5715208,55.6176171,71,Richard Mortensens Vej,,,,,2300,,f51592424656f55f
12.5715208,55.6176171,71,Richard Mortensens Vej,,,,,2300,,f51592424656f55f
12.5715208,55.6176171,71,Richard Mortensens Vej,,,,,2300,,f51592424656f55f
12.5715208,55.6176171,71,Richard Mortensens Vej,,,,,2300,,f51592424656f55f
12.5715208,55.6176171,71,Richard Mortensens Vej,,,,,2300,,f51592424656f55f
12.5715208,55.6176171,71,Richard Mortensens Vej,,,,,2300,,f51592424656f55f
9.1046469,55.9465651,15,Kolonihavevej,,,,,7330,,cbb9125f809718ab
12.5715208,55.6176171,71,Richard Mortensens Vej,,,,,2300,,f51592424656f55f
12.5715208,55.6176171,71,Richard Mortensens Vej,,,,,2300,,f51592424656f55f
10.0944305,56.1579767,78,Laskedalen,,,,,8220,,9a5ff0b74623bb04
9.5377508,55.5077972,19,AlrÃ¸vÃ¦nget,,,,,6000,,7d62748d55c99e21
12.2654668,55.5674319,26,Karlslunde Parkvej,,,,,2690,,c0f8d896b7ebc479
8.9378321,55.7612715,16,Hf. Grindsted,,,,,7200,,cf1e90b8f160d0a7
9.7293476,57.1640654,1F,HÃ¸jskolevej,,,,,9440,,22864feee8308eac
12.3242231,55.8722248,88,MÃ¸llemoseparken,,,,,3450,,89635084468374a5
9.8807884,57.1488847,64G,Gustav Zimmersvej,,,,,9430,,0e97837b72762190
11.5918669,55.9149454,7,SÃ¸bakken,,,,,4573,,80fd9b317b0b9b85
9.5129409,55.4673206,13,Gunnars Ager,,,,,6000,,2f1bfa8b44082de0
10.4266346,55.3636629,45,Hospitalsringen,,,,,5260,,dafa93682e22ce0c
9.4686546,55.4605875,54,Springbjerg,,,,,6000,,41808cda4d7f8c7e
10.7783692,55.3164571,58,Hf. Helgetoften,,,,,5800,,4f95f554c30eecda
10.7601602,55.3157175,19,LÃ¸begangen,,,,,5800,,5ad90e579221bc40
10.3144644,56.2734453,29,RosenvÃ¦nget,,,,,8541,,38494c522b70c201
9.9417368,56.4383209,54,Tornerosevej,,,,,8870,,1bad5d143ef71454
12.6125261,55.673985,58,KlÃ¸vermarksvej,,,,,2300,,b9d8ef0c6215a30a
10.6949274,56.1527241,13,Ã˜erkrogvejen,,,,,8400,,9c2d40a0e6a759f3
9.6276755,56.2205957,11,Romervej,,,,,8600,,c68fb46c7b96fdf1
11.7353735,55.9545375,22,LÃ¦rkevÃ¦nget,,,,,4581,,13b31022fbe83a27
12.4587107,55.6457116,125,Hf. KettehÃ¸j,,,,,2650,,405b8f81a2268f45
12.5801431,55.6200997,157,Hf. VestgrÃ¦nsen,,,,,2770,,9ba27260bb1f6f8c
12.571372,55.7119748,36,NygÃ¥rdsvej,,,,,2100,,23e07edb8e270b76
12.571372,55.7119748,36,NygÃ¥rdsvej,,,,,2100,,23e07edb8e270b76
12.571372,55.7119748,36,NygÃ¥rdsvej,,,,,2100,,23e07edb8e270b76
12.5706576,55.6184947,60,Richard Mortensens Vej,,,,,2300,,47ba460d413108e8
11.8748504,55.6344843,13A,Fynsvej,,,,,4060,,d12f392e66d083d7
8.793311,56.5224586,52,Ã˜stparken,,,,,7830,,005b605923dd67aa
9.9284167,57.0066633,11C,SÃ¸nder Tranders Vej,,,,,9210,,2f3b2178d98a7089
8.897237,55.2602413,6C,SkolevÃ¦nge,,,,,6760,,20419b3dce4a0501
12.2596087,55.4052446,38,Nicolinevej,,,,,4600,,091abaf9acd41d0b
9.3015375,55.6186595,20E,Parkvej,,,,,6040,,9d49070ca5e26e52
9.981062,55.7006392,30,Kysthaven,,,,,7130,,37957934841ebbe0
12.2652685,55.5722965,30,RÃ¸rhaven,,,,,2690,,2bca44cc1085ab78
9.8224539,55.8547763,21,Hs Carl Troelsens Minde,,,,,8700,,fcc30d332e007f3b
9.7852486,56.0822902,11B,VessÃ¸vej,,,,,8680,,c9bfe0a97b2b95b4
9.8648688,55.8711484,4,FlintevÃ¦nget,,,,,8700,,d3092e82437de4e6
11.3933821,55.2408215,8,Visbjergvej,,,,,4230,,dd1dc50b40a2b8fd
9.2895845,56.6086966,1G,Sandkrogen,,,,,7840,,5ec6e4a54b92de44
9.4667829,55.4497217,14,TeglvÃ¦nget,,,,,6000,,a844a281ffbfec01
12.301292,55.620461,10,Paradis AllÃ©,,,,,2635,,4b0a6409f955cc34
10.3009972,56.2658008,62,TronkÃ¦rgÃ¥rdsvej,,,,,8541,,b313ab0a0b38af1b
9.6722499,55.6656952,5A,Brejning SÃ¸ndergade,,,,,7080,,8f58d62c675e9244
10.3575322,56.3906615,1,DalsgÃ¥rdsvej,,,,,8963,,1f6de0300adba5da
11.9034309,55.0169883,2H,KullekÃ¦rvej,,,,,4760,,0f1f46198ec3fb11
12.4109926,55.8335667,1,BlÃ¥bÃ¦rstien,,,,,3460,,61f276b3594b2457
9.2027283,55.1983732,4A,Hyrupvej,,,,,6541,,56426d6a92b82349
9.4990305,55.4839462,90,Tvedvej,,,,,6000,,fe363d676422a6bb
10.0299775,57.1155796,14,Storemosevej,,,,,9310,,0f75a3b19ff2fedb
14.7146881,55.1761512,33,Hasle Hytteby,,,,,3790,,3526fa452b3045b6
8.5004438,55.4926311,121,Kvaglundparken,,,,,6705,,89a5f55895fb5ff1
9.9181075,55.2587649,25,Nellikevej,,,,,5610,,a712afb4564ef521
12.3634364,55.6685051,24M,Stensmosevej,,,,,2620,,a373774e880c72e6
10.4141441,57.5341126,32,Ã…svinget,,,,,9981,,8c9c17fcdf839986
10.0986445,56.1855157,161,Tilst Parkvej,,,,,8381,,410400f2c6be748b
10.3498672,55.4049403,21T,Jeppe AakjÃ¦rs AllÃ©,,,,,5210,,658cae6266d12bac
12.0907913,55.6180423,4,PoppelgÃ¥rdsvej,,,,,4000,,ad3a62b66a89216b
12.1397302,56.0625687,45,Stationsvej,,,,,3210,,b17a816ebf6ab842
9.557744,55.4604248,16G,SÃ¸nderbyvej,,,,,6091,,867eaf84f1e1c688
9.5841037,55.7542847,9,Ny Solskovvej,,,,,7100,,de63161b43f4b3b5
10.1256037,56.0318029,202D,Ã˜stergÃ¥rdsvej,,,,,8340,,e50a573e5e19e7a0
9.6728598,55.793928,25I,Lundagervej,,,,,8722,,a084cf603e791e2c
8.9103839,55.8330474,29,HoldgÃ¥rdsparken,,,,,7260,,2a88aee4d1a44d39
10.6534697,55.4530403,49,MÃ¸llegÃ¥rdens Haver,,,,,5300,,063f832dc5de4ce6
9.3540594,56.4423421,1,MÃ¸gelvang,,,,,8800,,397b9c50cd0e2550
12.5654633,55.6815718,2F,NÃ¸rre Farimagsgade,,,,,1364,,204f1b5e7adefe5c
9.0877189,55.7350573,4B,LÃ¸vlundvej,,,,,7190,,8d3fa51daf355f17
12.4419435,55.7041522,18,Tagetesvej,,,,,2610,,96c7a26a28cf4f36
9.9375192,57.0346076,42,Plateauet,,,,,9000,,fdc4bf9f03c651c9
9.8779082,57.0008949,36B,Gartnervej,,,,,9200,,4871e3b44870dec3
9.0449382,56.5709607,15,Skovhaverne,,,,,7800,,3a43742b277e1cce
12.4031406,55.7029057,102,VÃ¦ngedalen,,,,,2600,,6f061e14b9b4b772
10.914513,56.4123442,15,Erhvervsparken,,,,,8500,,acd4f0a70f6cf838
12.4371905,55.7130791,18,HyldebÃ¦rstien,,,,,2610,,3175e47b52146e53
10.4335215,55.4220957,42,Biskorup Havekoloni,,,,,5240,,27aa64c8ea4021a4
12.3326952,55.5949074,1B,Gersager Alle,,,,,2670,,8a082d3bed38d30e
10.2462426,55.9813113,14,StrandvÃ¦nget,,,,,8300,,01568836a2c0a169
12.5169417,55.6786729,9A,Peter Bangs Vej,,,,,2000,,5fcc725c02e3c5e4
12.5169417,55.6786729,9A,Peter Bangs Vej,,,,,2000,,5fcc725c02e3c5e4
12.5169417,55.6786729,9A,Peter Bangs Vej,,,,,2000,,5fcc725c02e3c5e4
12.5169417,55.6786729,9A,Peter Bangs Vej,,,,,2000,,5fcc725c02e3c5e4
11.0862403,55.6815895,7,Sct Olaigade,,,,,4400,,7d3a2aa5c5bcd457
11.0862403,55.6815895,7,Sct Olaigade,,,,,4400,,7d3a2aa5c5bcd457
10.5882806,56.3626725,16A,Drasbeksgade,,,,,8560,,3fffdf9b83e28503
12.5153347,55.6390465,25,Hf. Bergmannshave,,,,,2450,,a64c4f65a8257970
9.4757351,55.6648691,73,JerlevgÃ¥rdvej,,,,,7100,,1c429bee0634d2a5
8.1496515,56.6009952,72C,Strandvejen,,,,,7673,,5b27338f2bcf0100
9.6314049,56.9853329,32C,SÃ¸ndre Havnevej,,,,,9240,,320b7fd208b6ce92
12.2006066,55.4628635,30,Nordhavnsvej,,,,,4600,,c1824a026955de98
10.3138985,56.2737176,7,RosenvÃ¦nget,,,,,8541,,30831983b30fbf71
9.9686107,57.4532642,86S,Ã…strupvej,,,,,9800,,95a5ad6092c7b1df
10.5112213,55.1362608,36A,Sandbjergvej,,,,,5771,,e89de0bf1707505b
12.5236037,55.6565992,96A,ValbygÃ¥rdsvej,,,,,2500,,a9bbccba7160c777
9.2176492,55.3572169,1,BarsbÃ¸lmarkvej,,,,,6630,,bbe776f3e649d0bb
9.2958413,55.3171865,31B,HyldevÃ¦nget,,,,,6560,,f4a935416e3e0490
12.2560448,55.4055324,86,Nicolinevej,,,,,4600,,ca34279623ccd2ed
9.4646965,55.5158111,9,Ankerhus,,,,,6000,,ef66b0ad08ab81ac
9.9844554,57.3974824,18A,GrÃ¦shedevej,,,,,9800,,ee328bef0c0bf952
10.041175,56.0751271,121,Ã˜stergÃ¥rds Alle,,,,,8362,,111d52bf21cf556b
9.8521018,56.8982148,41,BÃ¦veren,,,,,9530,,774fe76970dcf280
10.5882806,56.3626725,16A,Drasbeksgade,,,,,8560,,3fffdf9b83e28503
12.2827977,55.9270503,91,Frederiksborg Haveforening,,,,,3400,,dd25e0cfa6e16e94
12.332309,55.7170835,37,RÃ¸nstrupvej,,,,,2750,,535ea37836c19259
9.7054932,55.5771275,27,PuggÃ¥rdsvej,,,,,7000,,7cca1e126efea246
10.6774997,56.1787339,8H,SÃ¸husvej,,,,,8400,,a111367245c2cfbb
10.6774997,56.1787339,8H,SÃ¸husvej,,,,,8400,,a111367245c2cfbb
10.6774997,56.1787339,8H,SÃ¸husvej,,,,,8400,,a111367245c2cfbb
10.6774997,56.1787339,8H,SÃ¸husvej,,,,,8400,,a111367245c2cfbb
10.6774997,56.1787339,8H,SÃ¸husvej,,,,,8400,,a111367245c2cfbb
10.6774997,56.1787339,8H,SÃ¸husvej,,,,,8400,,a111367245c2cfbb
10.6370377,55.8167755,76G,Strandvejen,,,,,8305,,ee822834520875de
12.4415916,55.742797,109,Hf. Klausdalsbro,,,,,2730,,e2049cb4aad78d3f
12.0673676,55.6511751,18,Tofteparken,,,,,4000,,19f65a0ce0e01ad6
10.3999493,55.5215287,50B,NÃ¸rregade,,,,,5450,,b87f53b6d4682620
12.2096093,55.7567609,52,Engholmvej,,,,,3660,,f6fd3fb232d9d307
12.5248962,55.6809624,14B,Kilevej,,,,,2000,,3ecf1b1309280e3c
11.6254856,54.7933328,45,Dannebrog,,,,,4990,,bbb50d2ca0e2f1a5
12.0039679,54.9976102,1,HÃ¸jgaardsvej,,,,,4760,,8848ca1f98259c03
10.3688782,55.3553083,205,Lilletoften Havekoloni,,,,,5260,,1ed3120f1ed97f01
10.2221275,56.1672588,171,Fiskerikajen,,,,,8000,,3a3cbce5d65498eb
12.323282,55.7759396,13,Ã˜stre Alle,,,,,3500,,d1edae1b8b0e1a4d
10.0548795,57.5596771,7D,Stejlbjergvej,,,,,9850,,62565ba2b5c082ee
9.9354762,57.0561117,37,Limfjordsvej,,,,,9400,,75221931c76b3c27
12.5169417,55.6786729,9A,Peter Bangs Vej,,,,,2000,,5fcc725c02e3c5e4
12.5169417,55.6786729,9A,Peter Bangs Vej,,,,,2000,,5fcc725c02e3c5e4
12.5169417,55.6786729,9A,Peter Bangs Vej,,,,,2000,,5fcc725c02e3c5e4
10.019943,56.4869687,21,JordbÃ¦rvangen,,,,,8920,,960cb95fb6ce001c
10.0022229,56.4639206,41E,HvidemÃ¸llevej,,,,,8920,,1bef24b30aca8ab1
8.6883064,56.9609832,34,Oluf Gades Minde,,,,,7700,,64373b7646efb72f
9.3490345,56.9277215,1B,Stationsvej,,,,,9670,,4675f47d3a7c26f2
12.4576831,55.6452523,85,Hf. KettehÃ¸j,,,,,2650,,aba3d1e0e00a1681
11.1920232,55.3266282,16,Norhaverne,,,,,4220,,d23d7811c987d462
11.8114237,55.4469855,1E,Ã˜stre Parkvej,,,,,4100,,ddc437912590be5c
10.0880539,56.1140681,206,Kildeagervej,,,,,8361,,34e8500376d9c6cb
10.0630516,56.4452438,5C,SigsgÃ¥rdsvej,,,,,8960,,627c40fe53979a53
10.6054536,55.2224645,15,Kolonihaverne Ved Lykkesholmsvej (Nord),,,,,5854,,43e760479446b667
8.4650424,55.4756375,130,Remisevej,,,,,6700,,de4ef6f215dd78fd
9.6189002,55.7311632,29,TirsbÃ¦k SÃ¸vej,,,,,7120,,66d9ff6a6f2afb06
9.5481791,56.2409079,2B,Ã˜sterbyvej,,,,,8632,,a4a1688c3042c52f
9.7368074,57.0005098,535,Nibevej,,,,,9240,,733928ca1cd6fbfe
12.5140076,55.6589099,22Z,Gammel KÃ¸ge Landevej,,,,,2500,,917c2fa5ee90e1f7
12.5140076,55.6589099,22Z,Gammel KÃ¸ge Landevej,,,,,2500,,917c2fa5ee90e1f7
12.5140076,55.6589099,22Z,Gammel KÃ¸ge Landevej,,,,,2500,,917c2fa5ee90e1f7
12.5140076,55.6589099,22Z,Gammel KÃ¸ge Landevej,,,,,2500,,917c2fa5ee90e1f7
12.5140076,55.6589099,22Z,Gammel KÃ¸ge Landevej,,,,,2500,,917c2fa5ee90e1f7
12.5140076,55.6589099,22Z,Gammel KÃ¸ge Landevej,,,,,2500,,917c2fa5ee90e1f7
12.5140076,55.6589099,22Z,Gammel KÃ¸ge Landevej,,,,,2500,,917c2fa5ee90e1f7
12.5405126,55.7194359,172B,Tuborgvej,,,,,2400,,cecee652d263544e
12.5140076,55.6589099,22Z,Gammel KÃ¸ge Landevej,,,,,2500,,917c2fa5ee90e1f7
12.5140076,55.6589099,22Z,Gammel KÃ¸ge Landevej,,,,,2500,,917c2fa5ee90e1f7
12.5140076,55.6589099,22Z,Gammel KÃ¸ge Landevej,,,,,2500,,917c2fa5ee90e1f7
12.5140076,55.6589099,22Z,Gammel KÃ¸ge Landevej,,,,,2500,,917c2fa5ee90e1f7
12.5140076,55.6589099,22Z,Gammel KÃ¸ge Landevej,,,,,2500,,917c2fa5ee90e1f7
12.5140076,55.6589099,22Z,Gammel KÃ¸ge Landevej,,,,,2500,,917c2fa5ee90e1f7
12.5140076,55.6589099,22Z,Gammel KÃ¸ge Landevej,,,,,2500,,917c2fa5ee90e1f7
12.5140076,55.6589099,22Z,Gammel KÃ¸ge Landevej,,,,,2500,,917c2fa5ee90e1f7
9.2808167,55.2617214,8C,SpÃ¦tmejsevej,,,,,6500,,4a0a42634de0489c
10.0479965,56.2738484,6,Udsigten,,,,,8382,,0c9b6066a8bffa6d
12.3395383,55.7134227,2,HindbÃ¦r Alle,,,,,2750,,826cb37d7b8ab06f
9.9076697,57.0374704,4E,MÃ¸lleparkvej,,,,,9000,,ce74433e77a9a1cb
11.923433,54.7167978,15B,PrÃ¦stestrÃ¦de,,,,,4873,,4550cac6b78c8ab4
11.955635,54.6920605,17,AvnbÃ¸gvej,,,,,4873,,8cd56aca77818c50
12.5368589,55.6638606,20,Tapperitorvet,,,,,1799,,a4bf24ba700e97d8
11.8075702,55.43872,17,SolbÃ¦rvÃ¦nget,,,,,4100,,a9fe954fced1d51e
12.558943,55.7040598,19,Stadens VÃ¦nge,,,,,2100,,11c2e4536096449a
11.355054,55.4020221,3E,Slotsgade,,,,,4200,,b899e17baeef3223
8.6875859,56.9542224,1G,Frederiks Torv,,,,,7700,,c83fd59640dd14d5
9.2083042,56.5740932,7A,Sejstrupvej,,,,,7840,,e5db4966fe6570f7
12.3281213,55.6881708,1A,LedÃ¸jevej,,,,,2620,,66dcb8cecc057843
10.4816159,55.244828,24,Kolonihave Fruerlund,,,,,5750,,8d0962888aaa5753
9.0240566,56.1386859,36,Fresiahaven,,,,,7400,,354448e35ce8f818
11.6320157,54.8008904,3C,Lillemark,,,,,4990,,f445f0ad33a112a8
12.4527701,55.7417569,29,Hf. Samvirke,,,,,2860,,f2df4abb9818fd2e
12.3987542,55.7183383,1,KildestrÃ¦det,,,,,2740,,a5b77e803e459509
12.4512833,55.7430881,57,Hf. FÃ¦lles Eje,,,,,2860,,f8deb447097a5873
12.5026761,55.9933246,15,Egeskovvej,,,,,3490,,e5aa7f849dee2420
9.3017608,55.8380409,177,Vejlevej,,,,,7323,,8a9e03d7c079d768
10.6699972,56.1599915,2,H. H. Hansens Vej,,,,,8400,,7e7f3c7a350d5ac4
12.3446319,55.7196798,44,LupinvÃ¦nget,,,,,2750,,1473af578e2f40a0
9.0144869,56.5735608,6,BÃ¦kkeblink,,,,,7800,,aaeffa090fbba6c5
8.8677213,57.0361755,5,Gl. Aalborgvej,,,,,7700,,b706478fbbcc575a
12.6215598,55.6669688,6B,Lindgreens AllÃ©,,,,,2300,,ae6cea163df6b8d1
10.8120532,55.311881,49,Hf. ElefanthÃ¸jen,,,,,5800,,cd06683e5006d342
12.5842511,55.6336401,17S,LandehjÃ¦lpvej,,,,,2300,,d377077c5e511271
12.4796765,55.8855902,24,Havrevej,,,,,2970,,9c19ab8954fc9ce6
10.4332567,55.4706395,55A,Grusgyden,,,,,5450,,1a202ea4993acfab
10.194542,57.4742868,27K,Odinsvej,,,,,9870,,4467dd11b96e5219
12.6239601,55.6646276,27,Strandlodsvej,,,,,2300,,b2122817004017cc
10.3470095,55.4309971,1,NÃ¦sby Haveforening,,,,,5270,,dbfa950cde9eed1a
9.8515622,55.8543322,15D,HÃ¸egh Guldbergs Gade,,,,,8700,,0f70c2d437100235
9.0433071,56.5725814,50,Dr Louisesvej,,,,,7800,,9b158c7fbe770ca2
10.7790762,55.3166902,55,Hf. Helgetoften,,,,,5800,,af09db4546c9605a
9.7543304,57.1499709,106,KnÃ¸sgÃ¥rdvej,,,,,9440,,f2546cff607a3e70
8.6802218,55.6549145,28B,KÃ¦rgÃ¥rdsvej,,,,,6800,,3c4d5e20adef55ef
12.2946581,55.9297011,42F,Slangerupgade,,,,,3400,,39ff5956c0f902a2
10.4211321,55.4323982,133,BÃ¥gÃ¸ Havekoloni,,,,,5000,,29b9007c9a761dfa
10.594704,57.735395,30,Guldmajsvej,,,,,9990,,37c3ba1b4f2a66b9
12.3070036,55.6200532,109,Cypressen,,,,,2635,,9dfbf108fcd1a698
8.470422,55.6221926,48,KÃ¦rhaven,,,,,6800,,4d8c7f86e8730402
9.9516734,57.1338625,55,Mejlstedvej,,,,,9380,,b64143d2aba7f187
12.459335,55.6343144,101,Hf. Dahlia,,,,,2650,,fcf4394664215c53
10.6697231,55.0490158,2,SkaarupsundvÃ¦nget,,,,,5700,,f46d58879e6213e6
12.357045,55.668605,29,Alberts Have,,,,,2620,,ec1f4305daa478cb
12.5815293,55.636076,46B,Ã˜restads Boulevard,,,,,2300,,b8b6778be8ae3f80
12.5815293,55.636076,46B,Ã˜restads Boulevard,,,,,2300,,b8b6778be8ae3f80
12.5815293,55.636076,46B,Ã˜restads Boulevard,,,,,2300,,b8b6778be8ae3f80
12.5815293,55.636076,46B,Ã˜restads Boulevard,,,,,2300,,b8b6778be8ae3f80
12.5815293,55.636076,46B,Ã˜restads Boulevard,,,,,2300,,b8b6778be8ae3f80
12.5815293,55.636076,46B,Ã˜restads Boulevard,,,,,2300,,b8b6778be8ae3f80
12.5815293,55.636076,46B,Ã˜restads Boulevard,,,,,2300,,b8b6778be8ae3f80
12.5815293,55.636076,46B,Ã˜restads Boulevard,,,,,2300,,b8b6778be8ae3f80
12.5815293,55.636076,46B,Ã˜restads Boulevard,,,,,2300,,b8b6778be8ae3f80
12.5815293,55.636076,46B,Ã˜restads Boulevard,,,,,2300,,b8b6778be8ae3f80
12.5815293,55.636076,46B,Ã˜restads Boulevard,,,,,2300,,b8b6778be8ae3f80
12.5815293,55.636076,46B,Ã˜restads Boulevard,,,,,2300,,b8b6778be8ae3f80
10.1906239,56.0287453,20,KrekÃ¦rvangen,,,,,8340,,a4950a6568ae473d
10.7936893,55.3265901,1,Hf. Skovly,,,,,5800,,d7c9192ab43dfbb0
8.1213884,56.5276162,6,Havtoften,,,,,7620,,330b64584cae620f
11.2444993,55.3595825,5,VejsgÃ¥rd Alle,,,,,4241,,53f82fa4f18ed69e
11.2444993,55.3595825,5,VejsgÃ¥rd Alle,,,,,4241,,53f82fa4f18ed69e
12.5957262,55.6876732,45A,Amaliegade,,,,,1256,,bb6ece3ceff99f23
12.5957262,55.6876732,45A,Amaliegade,,,,,1256,,bb6ece3ceff99f23
12.5957262,55.6876732,45A,Amaliegade,,,,,1256,,bb6ece3ceff99f23
12.5957262,55.6876732,45A,Amaliegade,,,,,1256,,bb6ece3ceff99f23
12.5957262,55.6876732,45A,Amaliegade,,,,,1256,,bb6ece3ceff99f23
12.5957262,55.6876732,45A,Amaliegade,,,,,1256,,bb6ece3ceff99f23
12.5957262,55.6876732,45A,Amaliegade,,,,,1256,,bb6ece3ceff99f23
9.0013157,56.1360441,9,Golfvej,,,,,7400,,42fc2f8406278445
10.1899117,56.1720805,25D,Finlandsgade,,,,,8200,,cd3e8184771612ce
12.5995019,55.6429861,1A,Jens Warmings Vej,,,,,2300,,76ea2610ab4d5eb9
12.1978821,55.4611912,17,Nordhavnsvej,,,,,4600,,6ea2ecf2d6d265f9
10.101555,55.3742458,14E,Bredgade,,,,,5492,,b35823c17bb0747e
10.6368798,55.0644714,61D,Fruerstuevej,,,,,5700,,18be113fdf9dd0f8
9.1578624,56.0024263,82B,DÃ¸rslundvej,,,,,7330,,b46baf6180c0389c
9.6934666,56.0711057,4,Skovlunden,,,,,8680,,e1a3d5490ef47386
12.4467631,55.6625496,130,Bredager,,,,,2605,,28dfe7fcead036b3
12.5179347,55.7104418,91,Skoleholdervej,,,,,2400,,a7f25b769d2b13b0
12.5179347,55.7104418,91,Skoleholdervej,,,,,2400,,a7f25b769d2b13b0
12.5179347,55.7104418,91,Skoleholdervej,,,,,2400,,a7f25b769d2b13b0
12.4367779,55.7104359,16,Solstien,,,,,2610,,ff3b2d1c6b17f283
10.1064884,56.7164737,25,Timandsvej,,,,,9560,,e4643605ab094aa3
9.739182,55.4963776,4,P V Tuxens Vej,,,,,5500,,1153fab43f233232
9.4869553,55.4690534,19,DjÃ¦vleklÃ¸ften,,,,,6000,,b6ce951216d21ed6
8.9754476,56.3447195,56B,Herningvej,,,,,7540,,e9bd4648a792c892
9.4586449,55.0882424,26,Ã˜ster Hessel,,,,,6200,,79850511c3d1aeb7
9.4860956,55.3550168,1,Gl. Kongevej,,,,,6070,,cb10c0bd5c0016bb
9.4687759,56.2465453,21B,Serup Skovvej,,,,,8620,,31b3c2e776e99a20
9.3404501,56.1748792,112,Emil Ernsts Vej,,,,,7442,,5a2ed0678365453b
10.0326288,57.1112598,1A,Den RÃ¸de GÃ¥rds Vej,,,,,9310,,d849d2c58ff24b68
9.7090032,55.7583743,82,RÃ¥dyrvej,,,,,8722,,f16025a3f32dfafa
9.4568221,54.9654486,10A,Assenholmvej,,,,,6200,,3baa7a5c366e1f86
12.1776501,56.0180883,44,SkovgÃ¥rdshave,,,,,3200,,6e52f85af7a9bdca
12.3355528,55.7157467,43,TranebÃ¦r Alle,,,,,2750,,21d2c0c212c43e79
10.2893835,56.2101069,618,EgÃ¥ Marina,,,,,8250,,0bc8c0f2b79ea3b1
12.3602841,55.6137511,2,Ved Stationen,,,,,2635,,aba4b006ab7fc1f6
10.5098636,57.4582262,4,Golfhaven,,,,,9900,,53d8706b8b24aec7
9.612657,56.20367,13,Bakkeborgtoften,,,,,8600,,d03072aa8aa61ee2
12.34173,55.7143453,37,Kronliljevej,,,,,2750,,c82fc91fac0ce530
9.8120166,55.8307305,9,Junivej,,,,,8700,,49a098dbfae3c00c
9.7185153,55.5199104,3A,Slotsstien,,,,,7000,,bf920d8fafbb21f7
9.7965472,56.6573092,25,KÃ¸bmagergade,,,,,9500,,b1c0dd8b426e14a3
12.4477562,55.7408531,148,Hf. FÃ¦lles Eje,,,,,2860,,bcd04e48b46c2849
10.0305338,56.4849415,13,Kavalerivej,,,,,8930,,45abafa11d7936b9
11.9638132,55.6467961,1A,Stetteager,,,,,4000,,a0e1cef8d278ec32
10.2903167,56.2107656,838,EgÃ¥ Marina,,,,,8250,,870a7dccf1d724fd
12.3329744,55.7421406,110A,Lindbjergvej,,,,,2750,,eff3c6d3c908b5b1
9.6812176,56.369194,18,Hf. Fjeren,,,,,8850,,a26347c7ca13688f
12.5552307,55.651342,14,Dieselvej,,,,,2450,,805f4f3dcf51dcb9
12.5552307,55.651342,14,Dieselvej,,,,,2450,,805f4f3dcf51dcb9
12.5552307,55.651342,14,Dieselvej,,,,,2450,,805f4f3dcf51dcb9
12.5552307,55.651342,14,Dieselvej,,,,,2450,,805f4f3dcf51dcb9
12.5552307,55.651342,14,Dieselvej,,,,,2450,,805f4f3dcf51dcb9
12.5552307,55.651342,14,Dieselvej,,,,,2450,,805f4f3dcf51dcb9
12.5552307,55.651342,14,Dieselvej,,,,,2450,,805f4f3dcf51dcb9
12.5552307,55.651342,14,Dieselvej,,,,,2450,,805f4f3dcf51dcb9
12.5552307,55.651342,14,Dieselvej,,,,,2450,,805f4f3dcf51dcb9
12.5552307,55.651342,14,Dieselvej,,,,,2450,,805f4f3dcf51dcb9
10.7169368,56.2023747,21C,SÃ¸kjersvej,,,,,8400,,9f458544c24f9ef1
12.3517548,55.712473,15,EgetrÃ¦et,,,,,2750,,93ab830ff559b3e7
8.7822839,55.9413323,11A,Bredgade,,,,,7280,,705beea7cccf9f8c
11.5686573,54.6871565,58,Tamrodsvej,,,,,4894,,b629ff4af82957a1
10.3052309,57.3676031,97,Lendumvej,,,,,9750,,d907f00b454473d0
12.5301686,55.6406232,553,Hf. Musikbyen,,,,,2450,,9f8acdcf9105b480
8.9525671,56.1265654,22,FjerkrÃ¦vej,,,,,7400,,82a7d922aa730b53
9.8341955,54.9130788,47,Store Skovly,,,,,6400,,7e56016769e3b5df
8.6090431,56.0693146,47A,Skolevej,,,,,6920,,99f28bf9fa1ba7e5
12.4009047,55.7393037,61,Hf. Syvendehus,,,,,2730,,c825adb5056dce15
11.9910892,55.4936237,81,BakkegÃ¥rds Alle,,,,,4140,,5904bd31b5f8de62
12.2676792,55.5696196,25,AgergÃ¥rdshaven,,,,,2690,,96a7e3edc2cbca0c
8.3200383,56.270862,12A,Herredsgade,,,,,6990,,a096ef67443235b1
12.4444713,55.740145,2,Nyvang Sydvej,,,,,2730,,b5144459ae15f63e
12.0942066,55.6405478,25,Ny Ã˜stergade,,,,,4000,,c474d3bd3dcff6d9
12.1026446,55.2630915,13,Industriparken,,,,,4640,,6bbc71da6374c409
12.3643528,55.7291363,9C,Ã˜stervej,,,,,2750,,b03f1a38583e3ed4
9.0028518,56.1496464,82,Engholm SÃ¸park,,,,,7400,,16e28c745881dcde
8.7226533,55.3163208,18,Marskvej,,,,,6760,,547a342402dd5243
9.8653377,57.0225407,138,Poul Anker Bechs Vej,,,,,9200,,66a923e39f06660a
12.5838848,55.6321728,34Y,Slusevej,,,,,2300,,a6763a828407afc3
12.3130597,55.929393,141,Campusvej,,,,,3400,,6ac1bb3c8783bfc8
12.5731622,55.6217192,30B,Robert Jacobsens Vej,,,,,2300,,f0a3182d6fe36800
9.4137106,56.4522203,4,RosenstrÃ¦de,,,,,8800,,256c31e03971a15e
9.4137106,56.4522203,4,RosenstrÃ¦de,,,,,8800,,256c31e03971a15e
8.4571419,55.4969983,13H,SlÃ¥envej,,,,,6715,,42d80f049f2d0d93
10.7002545,55.0830556,2D,Bjergagervej,,,,,5881,,f6acf85dc821a3c4
12.5718762,55.624075,8F,Richard Mortensens Vej,,,,,2300,,2d2351cf7cdbb1bf
14.7161102,55.0892189,24,Ipsens Have,,,,,3700,,f9fa00874e3047c0
14.7161102,55.0892189,24,Ipsens Have,,,,,3700,,f9fa00874e3047c0
10.4111235,55.4203227,10,Skibhus Skovkant,,,,,5000,,5f2a0981eedd38db
10.0512472,56.4498324,39B,Kristrupvej,,,,,8960,,56726d89e25a80ad
10.0512472,56.4498324,39B,Kristrupvej,,,,,8960,,56726d89e25a80ad
9.6155721,57.2487872,1E,Kirkevej,,,,,9492,,1c0069ebcd9c70b3
12.4892831,55.6324559,306A,Gammel KÃ¸ge Landevej,,,,,2650,,8d6878554407683f
11.3576272,55.4242773,58,NÃ¸rrevang,,,,,4200,,4b145e9a03e65d32
12.4648315,55.6451452,86,Hf. SvarÃ¸,,,,,2650,,71b42af20fc105da
11.8976244,55.5739776,5,GlÃ¦debjergvej,,,,,4330,,f32258c72f085eb7
11.1326736,54.8341653,9C,A. E. Hansensvej,,,,,4900,,fa01d4b19eea2c82
10.6824618,55.3593506,19B,DamsgÃ¥rdvej,,,,,5540,,240950f1a75c80ff
9.9671988,56.6444047,3A,Gl Hobrovej,,,,,9550,,fbb093d303f40d57
9.5315199,56.732574,98,HÃ¸jslev MÃ¸llevej,,,,,9620,,b663d23439b38e2f
12.5196518,55.6861046,1,Vej 14,,,,,2000,,31c953c556f46016
12.5196518,55.6861046,1,Vej 14,,,,,2000,,31c953c556f46016
12.5196518,55.6861046,1,Vej 14,,,,,2000,,31c953c556f46016
12.5196518,55.6861046,1,Vej 14,,,,,2000,,31c953c556f46016
10.3894571,57.2327304,6B,Agernvej,,,,,9330,,600c71c5b2ffa806
9.5020799,56.6152621,9D,SÃ¸ndergade,,,,,9632,,e93d00f4f317a5fa
9.874056,57.0168853,33,Sandtuevej,,,,,9200,,a21328b0d19ce907
9.5396439,55.7095517,2C,Strandgade,,,,,7100,,d6f8367b835ee561
8.6953392,56.3593334,28,Skjoldet,,,,,7500,,999341bcd7f72514
9.8607703,54.960518,10,Sebbelev Bygade,,,,,6440,,ef7aadaf75591e8c
9.9170859,57.0455906,12D,Danmarksgade,,,,,9000,,ed1c008f31735bd0
12.4363219,55.6779326,97,Krydderivej,,,,,2610,,93b09a8bacf8e43f
8.8603352,56.8067633,93B,Markedsgade,,,,,7900,,127718bd8b6baf05
8.8756892,54.9415093,10B,Carstensgade,,,,,6270,,aa17e9bb566b062d
8.8756892,54.9415093,10B,Carstensgade,,,,,6270,,aa17e9bb566b062d
10.100641,56.127554,122,Salamanderparken,,,,,8260,,a41e7a2818833a09
8.2327128,56.3690663,88B,Skalstrupvej,,,,,7570,,2f33c504d4886954
12.2970386,56.1174969,118,Bavne Ager,,,,,3250,,a389d4d7a72d2cb3
12.2970386,56.1174969,118,Bavne Ager,,,,,3250,,a389d4d7a72d2cb3
12.2906743,55.6927132,81,Solager,,,,,2630,,20c8fb60a2802cfb
10.4551533,55.1188095,59,Hundstrupvej,,,,,5771,,8657a2aef47b310b
9.1495979,55.7250964,620,Pilestien,,,,,7190,,f0969ed97b351fb3
10.0668045,56.1514686,33,Ã…rslev Markvej,,,,,8220,,7485b17b047e82db
8.7251993,56.0247667,2C,Troldhedevej,,,,,6920,,a2c7ed70d181dc0b
10.1688108,55.8917911,6P,Otto MÃ¸llersgade,,,,,8300,,0e8af6a295a153e1
10.0869179,56.1133098,282,Kildeagervej,,,,,8361,,57f707a1541263ab
12.2354604,55.4010419,4A,KirkehÃ¸jen,,,,,4600,,5c25f09cf126b073
12.5896133,55.6177334,63,Hf. Ved PilegÃ¥rden,,,,,2770,,7ea22ce3a7015bab
12.4420396,55.6919465,27,Forsythiastien,,,,,2610,,d1d1c36a354b6291
12.162699,55.7372071,7,HolmehÃ¸jen,,,,,4000,,68b458e236d0c33a
12.3394988,55.7218542,3,HÃ¸jvÃ¦nge Alle,,,,,2750,,0186781ca160d713
12.6126338,55.6760756,695,KlÃ¸vermarksvej,,,,,2300,,4548241cbab82f0c
10.4362364,55.3995956,224,SÃ¸ndergÃ¥rds Haver Havekoloni,,,,,5220,,ab63dee463579600
10.3790619,55.3929275,7B,SÃ¸ndergade,,,,,5000,,ffb0c85b6b166e0f
12.3537036,55.7125112,2,EgetrÃ¦et,,,,,2750,,47d26872b1b5e936
9.7120712,57.3657538,117,Josefines Have,,,,,9480,,2835364b1a7aee7d
9.8568087,55.8269639,3,Bakkestjernen,,,,,8700,,f4361a1f59088121
12.3034515,55.6532017,3,Kirkevej,,,,,2630,,9bfad973fa781e01
12.3034515,55.6532017,3,Kirkevej,,,,,2630,,9bfad973fa781e01
12.3034515,55.6532017,3,Kirkevej,,,,,2630,,9bfad973fa781e01
12.3034515,55.6532017,3,Kirkevej,,,,,2630,,9bfad973fa781e01
12.3034515,55.6532017,3,Kirkevej,,,,,2630,,9bfad973fa781e01
10.3379352,55.3921386,182T,Middelfartvej,,,,,5200,,a9a3009962edf5ad
12.4174645,55.6232007,17,Guldborgvej,,,,,2660,,31d3861bf84dec3f
12.4174645,55.6232007,17,Guldborgvej,,,,,2660,,31d3861bf84dec3f
12.4174645,55.6232007,17,Guldborgvej,,,,,2660,,31d3861bf84dec3f
12.4174645,55.6232007,17,Guldborgvej,,,,,2660,,31d3861bf84dec3f
12.4174645,55.6232007,17,Guldborgvej,,,,,2660,,31d3861bf84dec3f
12.4174645,55.6232007,17,Guldborgvej,,,,,2660,,31d3861bf84dec3f
12.4174645,55.6232007,17,Guldborgvej,,,,,2660,,31d3861bf84dec3f
12.4174645,55.6232007,17,Guldborgvej,,,,,2660,,31d3861bf84dec3f
12.4174645,55.6232007,17,Guldborgvej,,,,,2660,,31d3861bf84dec3f
12.4174645,55.6232007,17,Guldborgvej,,,,,2660,,31d3861bf84dec3f
12.4174645,55.6232007,17,Guldborgvej,,,,,2660,,31d3861bf84dec3f
12.4174645,55.6232007,17,Guldborgvej,,,,,2660,,31d3861bf84dec3f
12.4174645,55.6232007,17,Guldborgvej,,,,,2660,,31d3861bf84dec3f
12.4174645,55.6232007,17,Guldborgvej,,,,,2660,,31d3861bf84dec3f
12.4174645,55.6232007,17,Guldborgvej,,,,,2660,,31d3861bf84dec3f
12.4174645,55.6232007,17,Guldborgvej,,,,,2660,,31d3861bf84dec3f
12.4174645,55.6232007,17,Guldborgvej,,,,,2660,,31d3861bf84dec3f
12.4174645,55.6232007,17,Guldborgvej,,,,,2660,,31d3861bf84dec3f
12.4174645,55.6232007,17,Guldborgvej,,,,,2660,,31d3861bf84dec3f
12.4174645,55.6232007,17,Guldborgvej,,,,,2660,,31d3861bf84dec3f
12.4174645,55.6232007,17,Guldborgvej,,,,,2660,,31d3861bf84dec3f
9.931624,56.0339496,71,Adelgade,,,,,8660,,73cd647513950ac7
9.9987359,54.9582615,2,LÃ¸kkesled,,,,,6440,,7deeb98e150b9b33
9.4557752,55.5050517,151,Vejlevej,,,,,6000,,3687d513a4de9797
9.6053687,55.7276734,68,HindbÃ¦rhaven,,,,,7120,,7ee184cbb69cc894
9.5523954,56.6056304,16A,Roumvej,,,,,9632,,41da0053b332f493
9.5523954,56.6056304,16A,Roumvej,,,,,9632,,41da0053b332f493
9.5523954,56.6056304,16A,Roumvej,,,,,9632,,41da0053b332f493
9.5523954,56.6056304,16A,Roumvej,,,,,9632,,41da0053b332f493
11.5193315,54.7769841,15,Margrethehusene,,,,,4930,,f0e35ba6ac14e747
10.0433003,56.0752815,41,Ã˜stergÃ¥rds Alle,,,,,8362,,8ccb47d328c36c0b
12.4404352,55.7099459,11,Birkestien,,,,,2610,,b8ca015b7c678d4d
12.5801649,55.7326793,18,OnsgÃ¥rdsvej,,,,,2900,,7650e9190f750b61
11.3718806,55.4106435,603,Ã˜stervang,,,,,4200,,ff8d85b9ca376eb7
11.1951022,55.3259818,4,Norhaverne,,,,,4220,,5296908a9aff9178
10.1645269,55.328423,41A,Skovstrupvej,,,,,5690,,85461c32bf80fda9
8.2498937,56.0905642,16,NÃ¸rreport,,,,,6950,,3dcfa0da5d0743e5
12.3139689,55.8403585,4A,NymÃ¸llevej,,,,,3540,,088ee66a3fadcc4c
9.0098368,56.5731521,4,Vestager Have,,,,,7800,,5400403172a40540
12.4486844,55.7426254,19,Hf. FÃ¦lles Eje,,,,,2860,,92d416fa0112de04
12.1588223,55.7963505,4G,Stationsvej,,,,,3650,,2a34caee61263580
10.3786917,55.3940792,11C,Vesterbro,,,,,5000,,b10e14be726122c8
10.3786917,55.3940792,11C,Vesterbro,,,,,5000,,b10e14be726122c8
9.2749957,57.0877525,48K,Ã˜stergade,,,,,9690,,06763a646325e3ee
10.3487643,55.3873442,199,Roerskov Havekoloni,,,,,5200,,ed6872654acbff5d
10.6051297,55.0443404,26A,Bratenvej,,,,,5700,,a5f2697897de373b
9.9546293,55.5173289,2,Solvej,,,,,5464,,efbbeecd116a9883
9.4322663,55.5020105,27,AlpegÃ¥rden,,,,,6000,,98908df5c8a65297
9.0342306,56.5298143,18P,Flyvej,,,,,7800,,2208f2cd823ca800
11.0924239,54.8739955,9,TÃ¥rsvej,,,,,4912,,97cc8db193d0d3de
9.1203655,55.721324,46,Bakkelien,,,,,7190,,bc7bba7aa7d55ac2
10.304851,56.7406741,26,Strandlund,,,,,9560,,f0898ca7ee17542d
10.4069553,55.4182826,10,SandhusvÃ¦nget,,,,,5000,,2b4a880f85555a41
12.3875509,55.6237122,89,VallensbÃ¦k Stationstorv,,,,,2665,,ead66b13cb45f0c8
9.086286,56.1246864,15,Logistikvej,,,,,7400,,107a2cae0b703871
9.5423288,56.1352751,7,Hjortesigen,,,,,8600,,f0c25567035281e1
12.4970997,55.7109162,13A,Rugvej,,,,,2700,,f500dcc6de441831
12.1077262,56.0601203,3,Tisvildesvinget,,,,,3220,,04811e22649658a9
10.3975421,54.851948,4,RÃ¸degÃ¥rdsvej,,,,,5970,,443d3d76f8fa1f5f
10.5796171,57.7185122,117B,Sct. Laurentii Vej,,,,,9990,,1736869d3479bdb6
12.190792,55.640109,249,BrandhÃ¸jvej,,,,,2640,,f511e9c3b9d24155
10.296679,56.2658694,200,TronkÃ¦rgÃ¥rdsvej,,,,,8541,,c2b96b0e86d6a7f7
10.0971038,56.0409318,68,MÃ¸ddebro Parkvej,,,,,8355,,e8216db68897ac52
11.7817351,55.6121617,52,KvarmlÃ¸sevej,,,,,4340,,2c1526f59e3ed3b1
12.4343051,55.7110434,46,SolbÃ¦rstien,,,,,2610,,324f8e955ff1deb3
12.59228,56.0473645,1,Sperlings AllÃ©,,,,,3000,,836869c4e62f3d14
9.8312626,55.8804429,50,Hf AalÃ¸kke,,,,,8700,,d494c5722e89645e
12.2814272,55.9041561,2B,Lyngevej,,,,,3400,,b7d25cfb525881ce
12.5686485,55.6192305,64A,Else Alfelts Vej,,,,,2300,,e39bb5765967b2f5
12.5686485,55.6192305,64A,Else Alfelts Vej,,,,,2300,,e39bb5765967b2f5
12.5686485,55.6192305,64A,Else Alfelts Vej,,,,,2300,,e39bb5765967b2f5
12.5686485,55.6192305,64A,Else Alfelts Vej,,,,,2300,,e39bb5765967b2f5
12.5686485,55.6192305,64A,Else Alfelts Vej,,,,,2300,,e39bb5765967b2f5
12.5686485,55.6192305,64A,Else Alfelts Vej,,,,,2300,,e39bb5765967b2f5
12.5686485,55.6192305,64A,Else Alfelts Vej,,,,,2300,,e39bb5765967b2f5
12.5686485,55.6192305,64A,Else Alfelts Vej,,,,,2300,,e39bb5765967b2f5
12.5686485,55.6192305,64A,Else Alfelts Vej,,,,,2300,,e39bb5765967b2f5
12.5686485,55.6192305,64A,Else Alfelts Vej,,,,,2300,,e39bb5765967b2f5
12.5686485,55.6192305,64A,Else Alfelts Vej,,,,,2300,,e39bb5765967b2f5
12.5686485,55.6192305,64A,Else Alfelts Vej,,,,,2300,,e39bb5765967b2f5
12.5686485,55.6192305,64A,Else Alfelts Vej,,,,,2300,,e39bb5765967b2f5
12.5686485,55.6192305,64A,Else Alfelts Vej,,,,,2300,,e39bb5765967b2f5
12.5686485,55.6192305,64A,Else Alfelts Vej,,,,,2300,,e39bb5765967b2f5
12.5686485,55.6192305,64A,Else Alfelts Vej,,,,,2300,,e39bb5765967b2f5
12.5686485,55.6192305,64A,Else Alfelts Vej,,,,,2300,,e39bb5765967b2f5
12.4384781,55.7592682,80,VÃ¦rebrovej,,,,,2880,,310668d07578c0ef
9.9519947,57.1325902,41,HÃ¸jgÃ¥rden,,,,,9380,,30a590e55c738b6f
11.8513306,54.8502204,12,Lundbyvej,,,,,4863,,f80479504399519a
10.7974672,55.315403,17,Svanedamsgade,,,,,5800,,b9dd49c3f88fd30a
12.5618413,55.657957,17,Martin Luther Kings Vej,,,,,2450,,febec4fb37ae0330
12.5618413,55.657957,17,Martin Luther Kings Vej,,,,,2450,,febec4fb37ae0330
12.5618413,55.657957,17,Martin Luther Kings Vej,,,,,2450,,febec4fb37ae0330
12.5618413,55.657957,17,Martin Luther Kings Vej,,,,,2450,,febec4fb37ae0330
12.5618413,55.657957,17,Martin Luther Kings Vej,,,,,2450,,febec4fb37ae0330
12.5618413,55.657957,17,Martin Luther Kings Vej,,,,,2450,,febec4fb37ae0330
12.5618413,55.657957,17,Martin Luther Kings Vej,,,,,2450,,febec4fb37ae0330
12.5618413,55.657957,17,Martin Luther Kings Vej,,,,,2450,,febec4fb37ae0330
12.5618413,55.657957,17,Martin Luther Kings Vej,,,,,2450,,febec4fb37ae0330
12.5618413,55.657957,17,Martin Luther Kings Vej,,,,,2450,,febec4fb37ae0330
12.5618413,55.657957,17,Martin Luther Kings Vej,,,,,2450,,febec4fb37ae0330
12.5618413,55.657957,17,Martin Luther Kings Vej,,,,,2450,,febec4fb37ae0330
12.5618413,55.657957,17,Martin Luther Kings Vej,,,,,2450,,febec4fb37ae0330
12.5618413,55.657957,17,Martin Luther Kings Vej,,,,,2450,,febec4fb37ae0330
12.5618413,55.657957,17,Martin Luther Kings Vej,,,,,2450,,febec4fb37ae0330
12.5618413,55.657957,17,Martin Luther Kings Vej,,,,,2450,,febec4fb37ae0330
12.5618413,55.657957,17,Martin Luther Kings Vej,,,,,2450,,febec4fb37ae0330
12.5618413,55.657957,17,Martin Luther Kings Vej,,,,,2450,,febec4fb37ae0330
12.5618413,55.657957,17,Martin Luther Kings Vej,,,,,2450,,febec4fb37ae0330
12.5618413,55.657957,17,Martin Luther Kings Vej,,,,,2450,,febec4fb37ae0330
12.5618413,55.657957,17,Martin Luther Kings Vej,,,,,2450,,febec4fb37ae0330
12.5618413,55.657957,17,Martin Luther Kings Vej,,,,,2450,,febec4fb37ae0330
12.5618413,55.657957,17,Martin Luther Kings Vej,,,,,2450,,febec4fb37ae0330
12.5618413,55.657957,17,Martin Luther Kings Vej,,,,,2450,,febec4fb37ae0330
12.5618413,55.657957,17,Martin Luther Kings Vej,,,,,2450,,febec4fb37ae0330
12.5618413,55.657957,17,Martin Luther Kings Vej,,,,,2450,,febec4fb37ae0330
12.5618413,55.657957,17,Martin Luther Kings Vej,,,,,2450,,febec4fb37ae0330
12.5618413,55.657957,17,Martin Luther Kings Vej,,,,,2450,,febec4fb37ae0330
8.6011856,57.1109133,51,Fasanvej,,,,,7730,,89c9034327de4536
12.3381682,55.8672803,49,RÃ¥dhusparken,,,,,3450,,9de572d05fe96e71
10.0240579,56.5154804,23,Sellerivej,,,,,8920,,643825d7a7344995
12.3634577,55.6553877,3,StenklÃ¸vervÃ¦nget,,,,,2625,,bea2a3391b99eb08
9.9267841,57.0061303,8,Kastanjen,,,,,9210,,2194bcac64f573da
10.4819411,55.4290483,6,Bullerupparken,,,,,5320,,5fcb9fa03f3a2f2e
10.8648037,56.4105337,6,Portal Sti,,,,,8500,,430e7475344eb220
11.0862403,55.6815895,7,Sct Olaigade,,,,,4400,,7d3a2aa5c5bcd457
11.0862403,55.6815895,7,Sct Olaigade,,,,,4400,,7d3a2aa5c5bcd457
8.4573887,55.4587439,2D,Sahara,,,,,6700,,35e66754219faacf
12.3842393,55.6749631,38,Haveforeningen Hersted,,,,,2600,,81b7bfeeb9944172
9.8440083,55.923072,39,RÃ¸nnevangsparken,,,,,8751,,1ae0e414b66c960a
14.8054556,55.2702287,44,Ã†blevej,,,,,3770,,8d9ced5f0a84af58
14.8054556,55.2702287,44,Ã†blevej,,,,,3770,,8d9ced5f0a84af58
8.483946,55.6372636,226,NÃ¸rremarksvej,,,,,6800,,f2779b76860757f6
8.483946,55.6372636,226,NÃ¸rremarksvej,,,,,6800,,f2779b76860757f6
10.3209575,56.3098176,24C,Eskerodvej,,,,,8543,,6444e8fd7a013219
12.5234767,55.7508224,417,Lyngbyvej,,,,,2820,,2a2542ee50d7e610
12.5234767,55.7508224,417,Lyngbyvej,,,,,2820,,2a2542ee50d7e610
12.5234767,55.7508224,417,Lyngbyvej,,,,,2820,,2a2542ee50d7e610
12.5576686,55.8412566,15B,Frydenlunds Alle,,,,,2950,,42282eb855f7ed78
9.5434208,56.1629324,8B,Valdemarsgade,,,,,8600,,66b85dda0ec02bb5
9.6372358,56.1318436,232C,JulsÃ¸vej,,,,,8600,,036b533d0dcec225
12.1570206,54.9190682,28D,Dammegade,,,,,4792,,fc9ba2cbba504298
9.6447018,55.6337925,46,Mandelhaven,,,,,7080,,cf8d31338c2c46f8
12.5848426,55.6604326,33,Tom Kristensens Vej,,,,,2300,,ba324663d60a879d
9.3682889,56.4660038,22,Hf. Lundborg,,,,,8800,,cbd4c820e48c9393
8.695469,55.4810812,76,Gabelsvej,,,,,6740,,63e731a9c0a74446
12.4260746,55.7111793,280,Hf. Islegaard,,,,,2730,,38e30fcf16cc466d
9.9444704,57.0350326,71F,Petersborgvej,,,,,9000,,d9490ee88916a359
14.7179696,55.1044421,44,FÃ¦lleshÃ¥b,,,,,3700,,ea5de954a68949a4
12.236648,55.349184,1A,PilevÃ¦nget,,,,,4652,,d83237274ecff56c
9.8297588,56.9680215,48,MidgÃ¥rden,,,,,9230,,5fe8411ac52755eb
12.5787949,55.7093743,164A,Strandboulevarden,,,,,2100,,728996881530a940
12.5787949,55.7093743,164A,Strandboulevarden,,,,,2100,,728996881530a940
12.5787949,55.7093743,164A,Strandboulevarden,,,,,2100,,728996881530a940
10.0729845,56.6818803,14,Kongsdalparken,,,,,9550,,528def51b4174f8f
9.5025607,56.1581281,45,LysbrovÃ¦nget,,,,,8600,,267d727389998649
9.5314095,54.9882384,169,SÃ¸nderborgvej,,,,,6200,,c505b634ca5e27d3
9.3781299,56.4520755,21B,Katmosevej,,,,,8800,,56eb0fa4dcc79511
11.4880061,55.9428027,7B,Ã˜rnÃ¦svej,,,,,4500,,81c2c0fbedc40af5
11.6563263,55.634178,3A,Mogenstrupvej,,,,,4300,,56eff60c19ec7eb6
11.802212,55.4363048,2,Selandia Park,,,,,4100,,7c80e2ac4817f2d2
10.6584322,55.3649058,136,BÃ¸geskovvej,,,,,5540,,9d32ae61ebdab91f
10.5677615,57.727694,33F,Buttervej,,,,,9990,,cbc034ed2010df92
8.8576054,56.0321299,20D,Ã˜stergade,,,,,6933,,87fb9afb3b26287b
8.8576054,56.0321299,20D,Ã˜stergade,,,,,6933,,87fb9afb3b26287b
10.3173628,56.2716893,148,LÃ¸gten Ã˜stervej,,,,,8541,,635d35ed2e412c22
10.665158,55.4532212,6A,Marinavejen,,,,,5300,,99bea81f87feb141
10.665158,55.4532212,6A,Marinavejen,,,,,5300,,99bea81f87feb141
8.4085175,55.5117425,9C,Glarmestervej,,,,,6710,,0a7f5c4322be6cf3
9.7675243,55.5853908,130A,Treldevej,,,,,7000,,d474ef37e7d954ab
8.9577047,56.1517409,4,Solsortereden,,,,,7400,,43e8e41072c6fd9c
8.2965883,56.5642597,162,Vinkelhagevej,,,,,7620,,69fceaa0beeab0a7
10.3636074,57.5145237,119,Sindalvej,,,,,9981,,01b60253f058e84c
12.5519954,55.6481351,10B,Alliancevej,,,,,2450,,57f530feb0024582
12.343342,55.8830145,11,Grev Moltkevej,,,,,3450,,15d5860b28baccc8
9.754502,55.5663141,22A,Vendersgade,,,,,7000,,907c06aabd7b73a6
10.2294054,56.2314811,2,KÃ¦rlÃ¸kken,,,,,8520,,203a2de5d7ad48ea
10.1044103,56.9697395,11A,Stadionvej,,,,,9280,,21be8671bec7935d
12.2040224,55.8552243,26,Slangerup Overdrev,,,,,3550,,c4131c823d878d85
12.0778812,55.4927125,18,UglevÃ¦nget,,,,,4623,,61e859dfeb7ca31c
12.4536528,55.7411263,10,Hf. Samvirke,,,,,2860,,4e10b122957186ef
9.0269275,56.542198,6F,Frisenborgvej,,,,,7800,,19ea9f316e34d179
12.5714373,55.6251117,4M,Hannemanns AllÃ©,,,,,2300,,463813e132b12211
9.4969226,55.7207638,12,Skytten,,,,,7100,,cbd74cba1c8ae401
9.4969226,55.7207638,12,Skytten,,,,,7100,,cbd74cba1c8ae401
9.1559909,56.1364859,12C,Rolighedsvej,,,,,7430,,8d2df68d686f3360
10.1746972,56.1890184,47,Palle Juul-Jensens Boulevard,,,,,8200,,1dad3f9dc78fda96
12.316561,55.6163902,36H,BaldershÃ¸j,,,,,2635,,bd03c6928f49bce5
9.9225645,54.8606442,16,KegnÃ¦smose,,,,,6470,,d6a76f166af8701a
8.96065,56.1289936,8,Irisstien,,,,,7400,,63c33d2ba97bf205
12.3383572,55.7163888,35,SolbÃ¦r Alle,,,,,2750,,2b22dd68f1427169
10.2732809,55.3605528,1,HolmstrupvÃ¦nget,,,,,5250,,094d1029a9c58643
9.5195735,57.0957803,7,Parkvej,,,,,9460,,cb3cdf28c5db2f1d
8.1125426,56.1255058,323A,Lodbergsvej,,,,,6950,,9f7bded494404ed1
9.7839848,56.6536322,11,Johannes V. Jensens Vej,,,,,9500,,d11419a1ae39a875
9.2608702,55.8002045,6X,Bakkevej,,,,,7323,,ce528809a689bc0f
9.0671966,55.1940106,4,Tankegangen,,,,,6520,,3c0820fc0d575f5e
9.0671966,55.1940106,4,Tankegangen,,,,,6520,,3c0820fc0d575f5e
12.1840268,55.7585401,7,EngkÃ¦r,,,,,3660,,cbe622180486d097
9.5193594,56.1957397,5,Balle Bygade,,,,,8600,,291e01120b1097eb
12.3511891,55.8788438,2A,Uglevang,,,,,3450,,c245cb0f47139fea
10.1603033,56.5631183,15D,SÃ¸ndergÃ¥rdsvej,,,,,8983,,54710273cc9a274b
9.7056619,56.5505103,144C,Hobro Landevej,,,,,8830,,2e53e7137cac9dba
11.9200784,54.7342354,11,Sommerlyst,,,,,4800,,b9cb76018eb6683a
11.156734,55.3189698,95,Strandparken,,,,,4220,,7d609a3f341abd82
9.3784052,56.4538241,14,Hf. Friheden,,,,,8800,,ccf7772363a9984a
10.5434086,55.4697497,5,Svejservejen,,,,,5330,,5dd2cc699d019c64
10.1091174,56.1284131,3,VestergÃ¥rdsringen,,,,,8260,,dfd4d775604a026d
9.241794,55.9656735,13C,Tykskovvej,,,,,7361,,0d4e27f9f017739b
11.6831379,55.923193,42,Ã˜stervangshaven,,,,,4500,,af9ae7a4168b892b
12.5057416,55.6536592,106,ParadisÃ¦blevej,,,,,2500,,08c77717ce641882
12.5057416,55.6536592,106,ParadisÃ¦blevej,,,,,2500,,08c77717ce641882
12.5057416,55.6536592,106,ParadisÃ¦blevej,,,,,2500,,08c77717ce641882
12.5057416,55.6536592,106,ParadisÃ¦blevej,,,,,2500,,08c77717ce641882
12.5057416,55.6536592,106,ParadisÃ¦blevej,,,,,2500,,08c77717ce641882
12.5057416,55.6536592,106,ParadisÃ¦blevej,,,,,2500,,08c77717ce641882
12.5057416,55.6536592,106,ParadisÃ¦blevej,,,,,2500,,08c77717ce641882
12.5057416,55.6536592,106,ParadisÃ¦blevej,,,,,2500,,08c77717ce641882
9.4262776,55.0565255,42B,Havestien,,,,,6200,,082f397fb9abb12a
10.025607,56.4777591,22,MÃ¸nstervej,,,,,8920,,1cc1a245c956430f
11.7966285,55.4560116,19,Hf Heimdal,,,,,4100,,44a9a38acf7e77b7
10.3298808,57.0126197,40,Sydvestvej,,,,,9370,,61f8073bca478118
10.6703691,55.2550736,14,Hulvejen,,,,,5853,,17c609a4f425f0be
12.3019461,55.6176696,38,Violstien,,,,,2635,,a1957387a4012b24
9.913268,55.2595662,10D,DalvÃ¦nget,,,,,5610,,a968b21aec0cf4fa
11.9609967,55.3305048,2,Houmannsvej,,,,,4690,,50ccd44538877519
11.9609967,55.3305048,2,Houmannsvej,,,,,4690,,50ccd44538877519
11.9609967,55.3305048,2,Houmannsvej,,,,,4690,,50ccd44538877519
11.9609967,55.3305048,2,Houmannsvej,,,,,4690,,50ccd44538877519
9.9179821,56.5047229,40,Skovvadbrovej,,,,,8920,,20d9acb781ec680f
14.7176226,55.1031794,27,FÃ¦lleshÃ¥b,,,,,3700,,ecb12b21abd137e3
12.5044211,55.9343283,25,NivÃ¥ Center,,,,,2990,,513b29798f8a199c
9.631309,54.9444182,34,Truenbrovej,,,,,6300,,76a3336c31181b38
9.1047162,55.4574962,48,KongevÃ¦nget,,,,,6600,,08290216e4135613
9.0212621,56.575403,22,Ved Mosen,,,,,7800,,5d348ae456d59caa
9.7063884,55.5782696,12,PuggÃ¥rdsvej,,,,,7000,,26c047390f62dc60
10.1982868,56.0528587,29,Tofteparken,,,,,8330,,b1342140b4408cba
12.5565095,55.6522282,13,Cylindervej,,,,,2450,,a30d1b4d128fb273
12.5565095,55.6522282,13,Cylindervej,,,,,2450,,a30d1b4d128fb273
12.5565095,55.6522282,13,Cylindervej,,,,,2450,,a30d1b4d128fb273
12.5565095,55.6522282,13,Cylindervej,,,,,2450,,a30d1b4d128fb273
12.5565095,55.6522282,13,Cylindervej,,,,,2450,,a30d1b4d128fb273
12.5565095,55.6522282,13,Cylindervej,,,,,2450,,a30d1b4d128fb273
12.5565095,55.6522282,13,Cylindervej,,,,,2450,,a30d1b4d128fb273
12.5565095,55.6522282,13,Cylindervej,,,,,2450,,a30d1b4d128fb273
12.5565095,55.6522282,13,Cylindervej,,,,,2450,,a30d1b4d128fb273
12.5565095,55.6522282,13,Cylindervej,,,,,2450,,a30d1b4d128fb273
12.5565095,55.6522282,13,Cylindervej,,,,,2450,,a30d1b4d128fb273
12.5565095,55.6522282,13,Cylindervej,,,,,2450,,a30d1b4d128fb273
9.6011209,56.201976,16,Rosmarinvej,,,,,8600,,86bf93a17a1c3ced
9.1373575,56.1354311,14D,Orionvej,,,,,7430,,8c823aa71ec9d78e
12.5642844,55.666019,17,Carsten Niebuhrs Gade,,,,,1577,,c54f662ef15d7664
12.2541417,55.5565716,87K,Karlslunde Strandvej,,,,,2690,,41dd9e921cb5ba60
9.488842,55.2518778,38F,NÃ¸rregade,,,,,6100,,5f1d6358719f8322
9.488842,55.2518778,38F,NÃ¸rregade,,,,,6100,,5f1d6358719f8322
9.2909433,55.9813899,29,Vestbanen,,,,,7361,,92ec0f3e79240b5a
9.9106622,56.4853502,4A,Ã˜stervang,,,,,8920,,8dc0b0a4b16d0324
9.2027645,55.3564503,5C,Jels SÃ¸ndergade,,,,,6630,,16e80406be7761b8
10.0241878,56.5155922,25,Sellerivej,,,,,8920,,3d506fbec4b9a88c
8.5876635,56.4809852,202G,Ã…parken,,,,,7600,,908f364737ea82f0
10.3719254,56.333655,12,Ternevej,,,,,8544,,1896752b3aa14d06
10.453096,56.30905,14,Tyrrisvej,,,,,8410,,eff165aeed99cd2a
8.8183449,56.2074171,19,Sofiedalvej,,,,,7400,,7283f095a4a9944e
8.4190559,56.7486871,10,Smallegade,,,,,7760,,22dffba6b9d235a3
10.609416,55.0765706,13,Skovstjernehaven,,,,,5700,,dd9bac279cfd97d7
10.2703533,56.8042533,2B,Solbjergvej,,,,,9560,,bde2abe49c6ecb0e
11.9774467,55.1635689,9B,BygÃ¥rdsvej,,,,,4733,,62a83979719db5bb
9.4568991,55.4835714,55,Munkeparken,,,,,6000,,02b2f47b0fdb1af2
12.3411662,55.6704099,8B,Topperne,,,,,2620,,c017ee8acaca0854
9.8486728,55.9027616,50A,Kastanjealle,,,,,8700,,0d03216fc24e35ee
12.1283103,55.6527786,7K,Lysalleen,,,,,4000,,efa7b57ea80668d5
10.4561176,55.2358779,22,Johannesmindevej,,,,,5750,,699f3b0ceeec247d
9.6166304,55.7335186,62,Frydenlund,,,,,7120,,845d434933136433
9.4710823,55.0936904,102,BarsÃ¸vÃ¦nget,,,,,6200,,67a2a0b91c844aab
10.0341758,56.4597658,13A,Kirkegade,,,,,8900,,120d8bc2b377cac2
10.0341758,56.4597658,13A,Kirkegade,,,,,8900,,120d8bc2b377cac2
10.0341758,56.4597658,13A,Kirkegade,,,,,8900,,120d8bc2b377cac2
9.7947631,55.7028774,10,Humleparken,,,,,7140,,a44a894ef79e19e9
9.7947631,55.7028774,10,Humleparken,,,,,7140,,a44a894ef79e19e9
10.7093872,54.8595805,6A,HaugbÃ¸llevej,,,,,5900,,914534baaf897ee0
9.7653097,57.2675235,107C,Alstrupvej,,,,,9700,,09823a56ce6ad680
11.402329,54.9317177,55C,Storemosevej,,,,,4944,,9bd26219593e008b
12.3858971,55.6630468,22,Eriksvej,,,,,2600,,04063f19c636283c
8.8403494,55.6944314,8,Ã˜stergaardsvej,,,,,7200,,5c3272c2355d9741
9.7328423,57.1626581,18B,Kattedamsvej,,,,,9440,,6c43ab67861f75a0
10.3524604,55.3650942,18C,PorsevÃ¦nget,,,,,5250,,f55b839ef1142eee
9.4875411,55.4690054,25,DjÃ¦vleklÃ¸ften,,,,,6000,,c0bcb01995d78dc5
10.1068564,56.1281075,58,VestergÃ¥rdsvangen,,,,,8260,,de6868c2f05f7f88
9.035775,55.8106814,2C,Hjortlundvej,,,,,7200,,cccc95f81d6bcbc4
9.7761418,55.6184413,10B,Trelde MÃ¸llevej,,,,,7000,,a3020b08edd124be
12.1909152,55.639026,225,BrandhÃ¸jvej,,,,,2640,,572b4ad3f27cce57
10.1669052,56.058981,251,Nymarks AllÃ©,,,,,8320,,174d19f785adde88
9.5587328,56.1703502,1M,Falkevej,,,,,8600,,cc72ffe1c69a28ab
12.4929236,55.6507259,22B,Danhaven,,,,,2500,,365877fe0b12dbe3
12.5507857,55.6964062,111A,Jagtvej,,,,,2200,,f302c6b703e5234c
12.5507857,55.6964062,111A,Jagtvej,,,,,2200,,f302c6b703e5234c
10.1074225,56.130688,143,Fredensborgparken,,,,,8260,,358aaec8baf261e9
12.5902249,55.646958,53,Musvitgangen,,,,,2300,,1952d06ae63fa397
12.4483944,55.7354879,54C,Langdyssen,,,,,2730,,e0fa2adb7c8ed47b
10.4250035,57.1444383,18,Asaa Havn,,,,,9340,,e18f8487d8804df5
10.2616523,55.4951206,37,PilegÃ¥rdsvÃ¦nget,,,,,5471,,d48407510114deb3
11.1560092,55.3193602,31,Strandparken,,,,,4220,,6f62b8576eba21fb
9.7792119,55.8935657,7,GyvelhÃ¸j,,,,,8700,,bb86bdd42770a418
11.4315963,55.3634032,9A,Slagelse Landevej,,,,,4200,,43619b872c287757
11.1119079,54.8362025,10,HjortetrÃ¸st,,,,,4900,,024403617b3f2eea
12.4890597,56.0736285,44E,Saunte Bygade,,,,,3100,,f41f9bc1b5b842e4
8.9386803,56.1268265,24,Sandagervej,,,,,7400,,69a958cce5dfb72f
12.5725017,55.6787402,44A,Skindergade,,,,,1159,,ce1ca96ab264aade
12.5725017,55.6787402,44A,Skindergade,,,,,1159,,ce1ca96ab264aade
12.5725017,55.6787402,44A,Skindergade,,,,,1159,,ce1ca96ab264aade
12.5725017,55.6787402,44A,Skindergade,,,,,1159,,ce1ca96ab264aade
12.5725017,55.6787402,44A,Skindergade,,,,,1159,,ce1ca96ab264aade
12.3149216,55.7467309,109,SÃ¸ndergÃ¥rds AllÃ©,,,,,2760,,ff4c6e739f30f106
12.3149216,55.7467309,109,SÃ¸ndergÃ¥rds AllÃ©,,,,,2760,,ff4c6e739f30f106
10.5352267,57.4369546,8A,Havnegade,,,,,9900,,9b7e3a55bc54d994
12.1432683,55.6624828,8,Ageren,,,,,4000,,3b618c8667782470
10.3520394,55.3367246,155,Gyldenhusvej,,,,,5260,,64c82bdcb3a9c3bf
10.0425817,56.437961,65G,Skanderborggade,,,,,8940,,31eba9c4ba4e6bf1
11.8832808,54.7843607,144,Ã…haven,,,,,4800,,5354a56c99b7a42e
10.7081111,56.152245,5D,Ã˜ervej,,,,,8400,,835278f372be7c65
11.1920873,55.3570939,42,HalsebyvÃ¦nget,,,,,4220,,5f095e74d8739dcb
8.3293061,55.7062053,33,Hennevej,,,,,6855,,038391a26bc26818
12.6147123,55.6521167,7B,Smyrnavej,,,,,2300,,64ada0db4629f8e3
9.6460164,56.974399,3,Nibelunden,,,,,9240,,c4c8e495fc7b5125
9.4040045,54.9385897,12A,Lillegade,,,,,6200,,320febf423059360
12.3411464,55.7212123,13,Ã…markvÃ¦nget,,,,,2750,,8a8863e370e4de95
9.456755,55.4947673,11,KÃ¦mnerengen,,,,,6000,,14508b8a2040326b
10.624092,55.0701829,12,PrÃ¦rien,,,,,5700,,86e0692412c59ce9
8.1305863,56.0085809,13,Tyskerhavnen,,,,,6960,,b4be47561071cb17
12.1619344,55.9070011,70,Kaj Sommers Vej,,,,,3320,,b9bec14d2549a238
12.5326845,55.6670761,3,Bryggernes Plads,,,,,1799,,d60a520041a4e7ce
8.9774903,56.0852501,3D,Rind Plantagevej,,,,,7400,,67ae7130d4413040
12.4416411,55.7044389,41,Islevbrovej,,,,,2610,,070a1908c3161f77
10.2879814,56.2095378,321,EgÃ¥ Marina,,,,,8250,,f4ea07688e159d68
9.9634676,57.5802774,50,BakkehÃ¸j,,,,,9850,,3ca2e641ad980de6
9.8592105,56.7691449,3F,Jernbanegade,,,,,9510,,ce41320d77c9270a
12.5915412,55.6256446,83,Hf. SÃ¸ndervang,,,,,2770,,1d86ffcd59338e0d
10.2146311,55.2928089,4G,Fuglekildevej,,,,,5690,,cfd4acb4ec034bac
11.7585551,55.7073194,9,Auroravej,,,,,4300,,54c2f4d78578bce4
9.3760332,55.0626751,15E,Kresten Philipsens Vej,,,,,6200,,89faf0ee1862d854
12.440138,55.6753384,1,Risterivej,,,,,2610,,c96003b55beb9a27
12.5438597,55.7050082,129,Tagensvej,,,,,2200,,041c28a4f4dfa6ef
12.5438597,55.7050082,129,Tagensvej,,,,,2200,,041c28a4f4dfa6ef
12.5438597,55.7050082,129,Tagensvej,,,,,2200,,041c28a4f4dfa6ef
12.5438597,55.7050082,129,Tagensvej,,,,,2200,,041c28a4f4dfa6ef
12.5438597,55.7050082,129,Tagensvej,,,,,2200,,041c28a4f4dfa6ef
12.5438597,55.7050082,129,Tagensvej,,,,,2200,,041c28a4f4dfa6ef
12.5438597,55.7050082,129,Tagensvej,,,,,2200,,041c28a4f4dfa6ef
12.3453053,55.712235,1,Apollostien,,,,,2750,,0166fd22a6ce80df
12.326641,55.8547513,6,GrÃ¸ndalstien,,,,,3450,,b05800b38eba4f71
9.7659456,55.8586429,8B,Peter Dans Vej,,,,,8700,,a01a15e567a87a63
8.7942676,55.3366955,8,TÃ¸nnesens Vej,,,,,6760,,17ff0dd89b662720
11.4994542,55.6533797,41,Hovedgaden,,,,,4440,,94bcae21956e83f7
10.066851,56.4701385,6,Kupevej,,,,,8930,,9e208373d59ba18a
10.0958677,55.5518832,48,MÃ¸llehaven,,,,,5400,,e53f338910a0ce99
14.9200842,55.0618013,14B,Haregade,,,,,3720,,f03a025498d11a38
8.4666694,55.4531617,7,Orionvej,,,,,6700,,dd321fa2c3c2a37a
14.7197999,55.1099444,16,Hf. Friheden,,,,,3700,,dd2ebf4e9c9ed467
9.4824277,55.5024368,1,Sygehusvej,,,,,6000,,8199bb1adce3008e
10.4478825,55.0736087,68,FÃ¥borgvej,,,,,5762,,78af4cc39a2cba46
12.5130711,55.6689306,6B,Skelmosevej,,,,,2500,,9efbb858526ab905
12.5130711,55.6689306,6B,Skelmosevej,,,,,2500,,9efbb858526ab905
12.5130711,55.6689306,6B,Skelmosevej,,,,,2500,,9efbb858526ab905
12.5130711,55.6689306,6B,Skelmosevej,,,,,2500,,9efbb858526ab905
9.592337,57.2473725,33F,Ferren,,,,,9492,,b71b515538b8c20b
12.4264877,55.7164154,22B,Mileparken,,,,,2730,,7cae6ad3b938270e
12.1690506,55.4339548,65,Hf. KildemosegÃ¥rd I,,,,,4600,,b1df72f5bfcf2adb
9.3221919,55.061367,4,Skovbrynet,,,,,6230,,9fcd0e44a3709b21
9.5052222,56.1580988,16,BÃ¸gildhÃ¸jen,,,,,8600,,c62ad8904486372c
9.7098793,55.5799079,24B,Martine Christoffersens Vej,,,,,7000,,32905d270a1ae03e
9.5711171,55.5968033,111C,Bovballe MÃ¸llevej,,,,,7000,,18a302bba68350fb
10.1937235,56.0450875,4,VeilgÃ¥rdsparken,,,,,8340,,c5fb4488b64fa0c6
12.265271,55.5726687,24,RÃ¸rhaven,,,,,2690,,863932067169dbf7
10.6553386,55.4530142,41,MÃ¸llegÃ¥rdens Haver,,,,,5300,,dfa117fe84d205ff
8.1432499,56.3175472,33,Fjand Strand,,,,,6990,,4de3b4b73fc7a230
9.7509884,57.1570471,14,TorngÃ¥rdsallÃ©,,,,,9440,,4e17dd9e6920719a
10.3440942,55.4027832,56,GislavÃ¦nget,,,,,5210,,9f00806092acca65
10.3440942,55.4027832,56,GislavÃ¦nget,,,,,5210,,9f00806092acca65
10.0114408,55.7036296,7A,Strandhusevej,,,,,7130,,c4ab1f0b8ba65bd7
8.9130189,55.8331905,17,HoldgÃ¥rdsparken,,,,,7260,,cb6aa13881071b68
10.0959559,56.1579806,121,Laskedalen,,,,,8220,,a6135ec7956117e1
9.7013931,56.0159099,21A,Holmedal,,,,,8660,,5bc8359e9fb7e7dc
10.066385,56.4312676,8,Minervavej,,,,,8960,,b5e505f3ed905ed8
10.3714327,55.4400221,27,Johannes Rosendahl Parken,,,,,5270,,6363367b9b52153a
9.810204,56.6237082,12A,TÃ¥singevej,,,,,9500,,013311d868a8d470
12.5587831,56.030722,112,Pindemosevej,,,,,3000,,0a98a90cdf1e6ded
10.8870609,56.4040822,12K,Ydesvej,,,,,8500,,6be2592bb893511c
10.441806,55.4231454,4D,Mindelundsvej,,,,,5240,,c0cb25f6daf939a9
8.5121227,55.9393999,60,Birkalle,,,,,6900,,de7e7e0b355dbaed
12.1031312,55.6542153,40,Himmelev Have,,,,,4000,,cfb6d31f418fc17c
12.3403358,55.7171341,1,Kronliljevej,,,,,2750,,437d9ee118cd4b4d
12.2649355,55.595959,110,EjgÃ¥rdsminde,,,,,2670,,19916a4daae11d8b
9.4662774,55.3776231,3,Skovrup NÃ¸rrevej,,,,,6070,,0e9aa5a8de6ba92d
9.5094123,57.2047367,108,RÃ¸dhus Klitvej,,,,,9490,,bc50190a8aab5ecd
11.2387666,55.5380508,12,VandvÃ¦rksvej,,,,,4281,,f2b9be02b273425d
14.7142757,55.1047963,73,GrÃ¦skargangen,,,,,3700,,1241942c9f4c3561
9.4716277,55.4866821,30,Bredgade,,,,,6000,,44412a4dcb4763e3
11.4974088,54.7818849,18B,NÃ¸rresÃ¸gade,,,,,4930,,2bca0aa1f498a992
9.3296509,55.439903,9D,Lufthavnsvej,,,,,6580,,d605781420381d00
10.434221,55.422287,7,Biskorup Havekoloni,,,,,5240,,c91e7f4b1fb6014e
15.0009237,55.1043682,7B,HavrehÃ¸jvej,,,,,3751,,b15ee175dc4f74fd
8.297455,56.5414295,5,Christinelysthaven,,,,,7620,,7190a1a8019a53c7
12.0856984,55.629287,13,Rampelyset,,,,,4000,,b2ae77f3ffee3075
10.1937098,56.046572,38,VeilgÃ¥rdsparken,,,,,8340,,39d1138c163597cf
14.7444093,55.2477756,34,Fuglebakken,,,,,3790,,40293135d1b63f1f
11.4114779,54.833759,40,HavlÃ¸kkevej,,,,,4952,,dae5ad5eb08ce7ce
9.9394033,57.5284523,99,NejstgÃ¥rdvej,,,,,9850,,80c8097453f89ece
11.8478573,55.3811495,346B,Haslevvej,,,,,4100,,03b819fecf95af46
10.5313256,57.4493656,27,Fladstrandsparken,,,,,9900,,74d6857499e7dbd7
10.5313256,57.4493656,27,Fladstrandsparken,,,,,9900,,74d6857499e7dbd7
10.2010345,56.1458896,27C,Skt. Pauls Gade,,,,,8000,,33e043f42fed9264
10.2010345,56.1458896,27C,Skt. Pauls Gade,,,,,8000,,33e043f42fed9264
10.2010345,56.1458896,27C,Skt. Pauls Gade,,,,,8000,,33e043f42fed9264
10.2010345,56.1458896,27C,Skt. Pauls Gade,,,,,8000,,33e043f42fed9264
10.120558,55.9820487,32,Overskov,,,,,8300,,b7c1a0f290f149b5
10.2010345,56.1458896,27C,Skt. Pauls Gade,,,,,8000,,33e043f42fed9264
10.2010345,56.1458896,27C,Skt. Pauls Gade,,,,,8000,,33e043f42fed9264
10.2010345,56.1458896,27C,Skt. Pauls Gade,,,,,8000,,33e043f42fed9264
12.5110048,55.7851244,41,Hf. Lyngen,,,,,2800,,dce2e8f66ceebc0c
9.6122125,56.2035249,6,Bakkeborgtoften,,,,,8600,,e1d62cdba3a5f261
10.6770339,56.2019833,1V,Ndr. Strandvej,,,,,8400,,0da6961516a0bf53
12.3442469,55.7196917,37,ViolvÃ¦nget,,,,,2750,,947a665c06d6ae95
10.1916005,56.044669,11,VeilgÃ¥rdsparken,,,,,8340,,caa72e52b96af4a0
12.1405786,55.6535595,12,Korallens Alle,,,,,4000,,9d90ef88302e8e5c
10.1074564,56.1280822,66,VestergÃ¥rdsvangen,,,,,8260,,bfb02bc8bb342475
11.2173425,54.9089587,1A,Pederstrupvej,,,,,4913,,029744bbad4540ca
9.4386048,56.3310591,24,Flamming Mose Vej,,,,,8620,,98d588a549d65a0c
9.8470735,56.2397961,43,Kornmarken,,,,,8450,,3684287773a3b4e0
9.4536001,56.4727638,5,Hf. Hedehaverne,,,,,8800,,646cb0fb944bdb11
11.9552888,54.6999082,226,Marielyst Strandpark,,,,,4873,,5a7ebfcf35de74df
8.2586811,55.7857879,187,LÃ¸nne Feriepark,,,,,6830,,5134818ef65d5616
11.3831467,55.3762967,3,Slagelse Landevej,,,,,4200,,9fd7a55adb7fab45
